[
  {
    "s": { "no": "1" },
    "brand": "Sonalika",
    "local dealer": "Sri Balaji Tractors",
    "phone number": "9845943416",
    "state": "Karnataka",
    "city": "Adilabad",
    "pincode": "N/A",
    "address": "Ranna CircleOpp-Smarat Hotel Lokapur Road Mudhol"
  },
  {
    "s": { "no": "2" },
    "brand": "Sonalika",
    "local dealer": "SHRIPAL TRACTORS",
    "phone number": "9425429294",
    "state": "Madhya Pradesh",
    "city": "Agar Malwa",
    "pincode": "N/A",
    "address": "UJJAIN ROAD AGAR"
  },
  {
    "s": { "no": "3" },
    "brand": "Sonalika",
    "local dealer": "PATIDAR TRACTORS",
    "phone number": "9425993528",
    "state": "Madhya Pradesh",
    "city": "Agar Malwa",
    "pincode": "N/A",
    "address": "IN FRONT KRISHI UPAJ MANDI, SUSNER"
  },
  {
    "s": { "no": "4" },
    "brand": "Sonalika",
    "local dealer": "Jai Bhole Tractors",
    "phone number": "9412165782",
    "state": "Uttar Pradesh",
    "city": "Agra",
    "pincode": "N/A",
    "address": "MAIN CHOURAHABYE PASS, FATEHPUR SIKRI ROAD"
  },
  {
    "s": { "no": "5" },
    "brand": "Sonalika",
    "local dealer": "M. K. Enterprises",
    "phone number": "8126921151",
    "state": "Uttar Pradesh",
    "city": "Agra",
    "pincode": "N/A",
    "address": "AT 35 C SPACE VATIKA, NEAR SABJI MANDI, SIKANDRA"
  },
  {
    "s": { "no": "6" },
    "brand": "Sonalika",
    "local dealer": "Sai Sonalika Tractors",
    "phone number": "9422220438",
    "state": "Maharashtra",
    "city": "Ahmadnagar",
    "pincode": "N/A",
    "address": "BLOCK NO.5 first floorNEW SHOPPING COMPLEX, MARKET YARD,,"
  },
  {
    "s": { "no": "7" },
    "brand": "Sonalika",
    "local dealer": "Kochar Tractors & motors",
    "phone number": "9604035796",
    "state": "Maharashtra",
    "city": "Ahmadnagar",
    "pincode": "N/A",
    "address": "MURTIJAPUR ROADINFRONT OF SUNDAR AUTOMOBILES,"
  },
  {
    "s": { "no": "8" },
    "brand": "Sonalika",
    "local dealer": "Baldev Engineering",
    "phone number": "9820449442",
    "state": "Maharashtra",
    "city": "Ahmadnagar",
    "pincode": "N/A",
    "address": "PLOT NO. 28, ON PANNVEL-PEN HIGHWAY,"
  },
  {
    "s": { "no": "9" },
    "brand": "Sonalika",
    "local dealer": "SADGURU SONALIKA TRACTORS & IMPLEMENTS",
    "phone number": "9922212326",
    "state": "Maharashtra",
    "city": "Ahmadnagar",
    "pincode": "N/A",
    "address": "SHEKAIWADI POST AKOLE"
  },
  {
    "s": { "no": "10" },
    "brand": "Sonalika",
    "local dealer": "SHRIRAM AUTOMOBILES",
    "phone number": "9881235031",
    "state": "Maharashtra",
    "city": "Ahmadnagar",
    "pincode": "N/A",
    "address": "YEOLA ROAD, NEAR HOTEL ASHOKA"
  },
  {
    "s": { "no": "11" },
    "brand": "Sonalika",
    "local dealer": "GURU KRUPA TRACTORS",
    "phone number": "9850492349",
    "state": "Maharashtra",
    "city": "Ahmadnagar",
    "pincode": "N/A",
    "address": "GHULEWADI POLICE STATION, OPP. CENTRAL BANK"
  },
  {
    "s": { "no": "12" },
    "brand": "Sonalika",
    "local dealer": "Laxmi Tractors",
    "phone number": "9766668788",
    "state": "Maharashtra",
    "city": "Ahmadnagar",
    "pincode": "N/A",
    "address": "At PO Wadala Bahiroba"
  },
  {
    "s": { "no": "13" },
    "brand": "Sonalika",
    "local dealer": "Nageshwar Motors",
    "phone number": "9420005448",
    "state": "Maharashtra",
    "city": "Ahmadnagar",
    "pincode": "N/A",
    "address": "At Shrigonda MandavganRoad"
  },
  {
    "s": { "no": "14" },
    "brand": "Sonalika",
    "local dealer": "Shriram Automobile",
    "phone number": "9423724121",
    "state": "Maharashtra",
    "city": "Ahmadnagar",
    "pincode": "N/A",
    "address": "Yeola Naka, 15/34, Nagar Manmad Road"
  },
  {
    "s": { "no": "15" },
    "brand": "Sonalika",
    "local dealer": "Vikas And Company",
    "phone number": "9405206187",
    "state": "Maharashtra",
    "city": "Ahmadnagar",
    "pincode": "N/A",
    "address": "Gat No. 940/ A S.No. 3381/3 Plot No. 1 , In front of Deshbandhu ManjuGupta Building, Sakri Road"
  },
  {
    "s": { "no": "16" },
    "brand": "Sonalika",
    "local dealer": "Shree Balaji Tractors",
    "phone number": "9723020132",
    "state": "Gujarat",
    "city": "Ahmedabad",
    "pincode": "N/A",
    "address": "NH No. 8 . Nr. Jetalpur Seva Sahakari Petrol Pump, Opp Umiya Kanta, Aslali To Bareja Road ,"
  },
  {
    "s": { "no": "17" },
    "brand": "Sonalika",
    "local dealer": "Noble Tractor",
    "phone number": "9723120817",
    "state": "Gujarat",
    "city": "Ahmedabad",
    "pincode": "N/A",
    "address": "Sai Crystal Complex , Bavla Sanand Highway , Near Essar Petrol Pump"
  },
  {
    "s": { "no": "18" },
    "brand": "Sonalika",
    "local dealer": "Patel Tractor",
    "phone number": "9998177892",
    "state": "Gujarat",
    "city": "Ahmedabad",
    "pincode": "N/A",
    "address": "Near Honda Showroom, Opp Aaram Gruh, Mandal Road"
  },
  {
    "s": { "no": "19" },
    "brand": "Sonalika",
    "local dealer": "MOHIT TRACTORS",
    "phone number": "9414004876",
    "state": "Rajasthan",
    "city": "Ajmer",
    "pincode": "N/A",
    "address": "Kota Road"
  },
  {
    "s": { "no": "20" },
    "brand": "Sonalika",
    "local dealer": "PAHARIA MOTORS & TRACTORS",
    "phone number": "9414668666",
    "state": "Rajasthan",
    "city": "Ajmer",
    "pincode": "N/A",
    "address": "NEAR TEJA JI THAN, KHAKHI DARWAJA"
  },
  {
    "s": { "no": "21" },
    "brand": "Sonalika",
    "local dealer": "SATONKAR TRACTORS",
    "phone number": "9146811333",
    "state": "Maharashtra",
    "city": "Akola",
    "pincode": "N/A",
    "address": "SATONKAR COMPEX, MAIN ROAD PARTUR"
  },
  {
    "s": { "no": "22" },
    "brand": "Sonalika",
    "local dealer": "Krishna Motors",
    "phone number": "9890176766",
    "state": "Maharashtra",
    "city": "Akola",
    "pincode": "N/A",
    "address": "Akola Road"
  },
  {
    "s": { "no": "23" },
    "brand": "Sonalika",
    "local dealer": "Durga Maa Shiv Tractors",
    "phone number": "9639474938",
    "state": "Uttar Pradesh",
    "city": "Aligarh",
    "pincode": "N/A",
    "address": "Mr. Charan Singh"
  },
  {
    "s": { "no": "24" },
    "brand": "Sonalika",
    "local dealer": "Kisan Agriculture Store",
    "phone number": "9359958278",
    "state": "Uttar Pradesh",
    "city": "Aligarh",
    "pincode": "N/A",
    "address": "Infront of Qwarsi Power Station, Ramghat Road"
  },
  {
    "s": { "no": "25" },
    "brand": "Sonalika",
    "local dealer": "Maa Durga Tractors",
    "phone number": "9837516084",
    "state": "Uttar Pradesh",
    "city": "Aligarh",
    "pincode": "N/A",
    "address": "NEAR ANAJ MANDI"
  },
  {
    "s": { "no": "26" },
    "brand": "Sonalika",
    "local dealer": "Shivam Tractors",
    "phone number": "9690956001",
    "state": "Uttar Pradesh",
    "city": "Aligarh",
    "pincode": "N/A",
    "address": "ALIGARH ROAD,KESAMANA, CHIROLI MANDIR"
  },
  {
    "s": { "no": "27" },
    "brand": "Sonalika",
    "local dealer": "SHILAKA ENTERPRISES",
    "phone number": "9575110237",
    "state": "Madhya Pradesh",
    "city": "Alirajpur",
    "pincode": "N/A",
    "address": "11, PANCHESWAR MARG ,ALIRAJPUR 11, PANCHESWAR MARG ,ALIRAJPUR"
  },
  {
    "s": { "no": "28" },
    "brand": "Sonalika",
    "local dealer": "Sharma Enterprises",
    "phone number": "9630808503",
    "state": "Madhya Pradesh",
    "city": "Alirajpur",
    "pincode": "N/A",
    "address": "Dahod Road, Bhavra"
  },
  {
    "s": { "no": "29" },
    "brand": "Sonalika",
    "local dealer": "Manish Auto Mobiles And Service Centre",
    "phone number": "9621794585",
    "state": "Uttar Pradesh",
    "city": "Allahabad",
    "pincode": "N/A",
    "address": "HANDIA TOWN AREA, WARD NO.11,"
  },
  {
    "s": { "no": "30" },
    "brand": "Sonalika",
    "local dealer": "Shukla Auto Sales",
    "phone number": "9838949438",
    "state": "Uttar Pradesh",
    "city": "Allahabad",
    "pincode": "N/A",
    "address": "JANKIGUNJ, MEZA ROAD,"
  },
  {
    "s": { "no": "31" },
    "brand": "Sonalika",
    "local dealer": "Kalyani Auto",
    "phone number": "9935615821",
    "state": "Uttar Pradesh",
    "city": "Allahabad",
    "pincode": "N/A",
    "address": "515 MUTTHIGANJ"
  },
  {
    "s": { "no": "32" },
    "brand": "Sonalika",
    "local dealer": "Greenfarm Tractors & Engineers Pvt Ltd.,",
    "phone number": "9415608047",
    "state": "Uttar Pradesh",
    "city": "Allahabad",
    "pincode": "N/A",
    "address": "VILL. CHAK SEMARA POST. GHOORPUR REWA ROAD"
  },
  {
    "s": { "no": "34" },
    "brand": "Sonalika",
    "local dealer": "Om Enterprises",
    "phone number": "9532228500",
    "state": "Uttar Pradesh",
    "city": "Allahabad",
    "pincode": "N/A",
    "address": "Office No 3, Neelanchal Complex , G.T. Road , Post Kushtha Seva Aashram Village Madhiya Parao Landmark Opp. Ambition Institute"
  },
  {
    "s": { "no": "35" },
    "brand": "Sonalika",
    "local dealer": "ALFA SERVICES",
    "phone number": "9891954659",
    "state": "Rajasthan",
    "city": "Alwar",
    "pincode": "N/A",
    "address": "F-84 -85,85A & 59A RIICO Indutrial Area"
  },
  {
    "s": { "no": "36" },
    "brand": "Sonalika",
    "local dealer": "CHOUDHARY TRACTORS",
    "phone number": "8504998216",
    "state": "Rajasthan",
    "city": "Alwar",
    "pincode": "N/A",
    "address": "STATE HIGHWAY NO. 25, KISHANGARH BYEPASS, NEAER HOTEL HAVALI"
  },
  {
    "s": { "no": "37" },
    "brand": "Sonalika",
    "local dealer": "Arj Automobiles",
    "phone number": "9314168810",
    "state": "Rajasthan",
    "city": "Alwar",
    "pincode": "N/A",
    "address": "Ramgadh Road"
  },
  {
    "s": { "no": "38" },
    "brand": "Sonalika",
    "local dealer": "Balaji Motors",
    "phone number": "9610762444",
    "state": "Rajasthan",
    "city": "Alwar",
    "pincode": "N/A",
    "address": "Kishangarh Kotkasim Road,Near Tijara Mod"
  },
  {
    "s": { "no": "39" },
    "brand": "Sonalika",
    "local dealer": "Sarvshaktimaan Machinery Stores",
    "phone number": "9672245555",
    "state": "Rajasthan",
    "city": "Alwar",
    "pincode": "N/A",
    "address": "Rajgarh Bye Pass, Opp Bharadwaj Petrol Pump"
  },
  {
    "s": { "no": "40" },
    "brand": "Sonalika",
    "local dealer": "JAI KISSAN TRACTORS",
    "phone number": "9896257816",
    "state": "Haryana",
    "city": "Ambala",
    "pincode": "N/A",
    "address": "COURT ROAD"
  },
  {
    "s": { "no": "41" },
    "brand": "Sonalika",
    "local dealer": "JAGDAMBEY TRADING CO.",
    "phone number": "9416093966",
    "state": "Haryana",
    "city": "Ambala",
    "pincode": "N/A",
    "address": "Near Radha Swami Satsang, Panjlasa Road"
  },
  {
    "s": { "no": "42" },
    "brand": "Sonalika",
    "local dealer": "Ayodhya Automobiles",
    "phone number": "9450495174",
    "state": "Uttar Pradesh",
    "city": "Ambedkar Nagar",
    "pincode": "N/A",
    "address": "AZAMGARH ROAD,"
  },
  {
    "s": { "no": "43" },
    "brand": "Sonalika",
    "local dealer": "Bhadauria Tractors",
    "phone number": "9415232278",
    "state": "Uttar Pradesh",
    "city": "Ambedkar Nagar",
    "pincode": "N/A",
    "address": "NEAR AKBARPUR DEGREE COLLEGE ,"
  },
  {
    "s": { "no": "44" },
    "brand": "Sonalika",
    "local dealer": "Singh Automobiles",
    "phone number": "9415056783",
    "state": "Uttar Pradesh",
    "city": "Amethi",
    "pincode": "N/A",
    "address": "MUNSI GANJ ROAD"
  },
  {
    "s": { "no": "45" },
    "brand": "Sonalika",
    "local dealer": "Daya Automobiles",
    "phone number": "9454687148",
    "state": "Uttar Pradesh",
    "city": "Amethi",
    "pincode": "N/A",
    "address": "Mr Raghvendra Pratap Singh"
  },
  {
    "s": { "no": "46" },
    "brand": "Sonalika",
    "local dealer": "Tambi Tractors",
    "phone number": "9422190994",
    "state": "Maharashtra",
    "city": "Amravati",
    "pincode": "N/A",
    "address": "NEAR RTO CHOWK,"
  },
  {
    "s": { "no": "47" },
    "brand": "Sonalika",
    "local dealer": "SHRI GANESH TRACTORS",
    "phone number": "9822974295",
    "state": "Maharashtra",
    "city": "Amravati",
    "pincode": "N/A",
    "address": "INFRONT OF YASH HOTEL AMRAVATI PARATWADA ROAD"
  },
  {
    "s": { "no": "48" },
    "brand": "Sonalika",
    "local dealer": "Purna Tractors",
    "phone number": "9890657423",
    "state": "Maharashtra",
    "city": "Amravati",
    "pincode": "N/A",
    "address": "Plot No 7 35/2, Oppoosite SBI Vidyut Nagar"
  },
  {
    "s": { "no": "49" },
    "brand": "Sonalika",
    "local dealer": "Vrishank Tractors & Motors",
    "phone number": "9890040077",
    "state": "Maharashtra",
    "city": "Amravati",
    "pincode": "N/A",
    "address": "Kokarda Phata, Anjangaon Daryapur Road, PO Tambasvadi"
  },
  {
    "s": { "no": "50" },
    "brand": "Sonalika",
    "local dealer": "KRISHNA TRACTORS",
    "phone number": "9426353116",
    "state": "Gujarat",
    "city": "Amreli",
    "pincode": "N/A",
    "address": "TATVA JYOTI, ON VIJAPADI ROAD OPP AMAZON RESIDENCY, SAVARKUNDLA BYEPASS ROAD"
  },
  {
    "s": { "no": "51" },
    "brand": "Sonalika",
    "local dealer": "Ramkrushna Tractors",
    "phone number": "9429345298",
    "state": "Gujarat",
    "city": "Amreli",
    "pincode": "N/A",
    "address": "Amreli Mahuva Road, Mahadev Nagar Society 4, Opp.Reliance Petrol Pump"
  },
  {
    "s": { "no": "52" },
    "brand": "Sonalika",
    "local dealer": "Shree Sonalkrupa Tractors",
    "phone number": "9586966200",
    "state": "Gujarat",
    "city": "Amreli",
    "pincode": "N/A",
    "address": "Amreli Lathi Road, Near LPG Pump, By Pass"
  },
  {
    "s": { "no": "53" },
    "brand": "Sonalika",
    "local dealer": "Baljeet Tractors",
    "phone number": "9814293333",
    "state": "Punjab",
    "city": "Amritsar",
    "pincode": "N/A",
    "address": "OPP. RAM TALAI MANDIR & JAHAJGARHG.T ROAD,"
  },
  {
    "s": { "no": "54" },
    "brand": "Sonalika",
    "local dealer": "Nirvair Tractors",
    "phone number": "9814099492",
    "state": "Punjab",
    "city": "Amritsar",
    "pincode": "N/A",
    "address": "AMRITSAR ROAD, Ajnala"
  },
  {
    "s": { "no": "55" },
    "brand": "Sonalika",
    "local dealer": "Kisan Agriculture Implements",
    "phone number": "9837090293",
    "state": "Uttar Pradesh",
    "city": "Amroha",
    "pincode": "N/A",
    "address": "OPP. ANAND MAHALKAILSA ROAD"
  },
  {
    "s": { "no": "56" },
    "brand": "Sonalika",
    "local dealer": "HARIOM TRACTORS",
    "phone number": "9979695068",
    "state": "Gujarat",
    "city": "Anand",
    "pincode": "N/A",
    "address": "NH-8, ANAND, VASAD ROAD, POST WAGHASI, ANAND"
  },
  {
    "s": { "no": "57" },
    "brand": "Sonalika",
    "local dealer": "Ratana Tractors Associate Dealer",
    "phone number": "9879010826",
    "state": "Gujarat",
    "city": "Anand",
    "pincode": "N/A",
    "address": "New APMC,Near Gyatrinagar"
  },
  {
    "s": { "no": "58" },
    "brand": "Sonalika",
    "local dealer": "S.V.MOTORS",
    "phone number": "9959659907",
    "state": "Andhra Pradesh",
    "city": "Anantapur",
    "pincode": "N/A",
    "address": "#20/196-2, OPP: ST.PETER'S HIGH SCHOOL, HANUMESH NAGAR"
  },
  {
    "s": { "no": "59" },
    "brand": "Sonalika",
    "local dealer": "Sri Jaya Motors",
    "phone number": "9550542277",
    "state": "Andhra Pradesh",
    "city": "Anantapur",
    "pincode": "N/A",
    "address": "Plot No. 179.1 & 2, Saidapuram Anathapuram Road"
  },
  {
    "s": { "no": "60" },
    "brand": "Sonalika",
    "local dealer": "SAI AGRO MECHINERY",
    "phone number": "9437067303",
    "state": "Orissa",
    "city": "Anugul",
    "pincode": "N/A",
    "address": "NH-55, Near Sahid Petrol Pump, Nalco Nagar, Angul"
  },
  {
    "s": { "no": "61" },
    "brand": "Sonalika",
    "local dealer": "SAHARA TRACTORS",
    "phone number": "9931233444",
    "state": "Bihar",
    "city": "Araria",
    "pincode": "N/A",
    "address": "Rahmani Market, M A K Azad Chowk Zero Mile"
  },
  {
    "s": { "no": "62" },
    "brand": "Sonalika",
    "local dealer": "BALAJI TRACTORS ENTERPRISES",
    "phone number": "9473112588",
    "state": "Bihar",
    "city": "Araria",
    "pincode": "N/A",
    "address": "JUMAN CHOWK JUMAN CHOWK"
  },
  {
    "s": { "no": "63" },
    "brand": "Sonalika",
    "local dealer": "Jagdamba Auto Traders",
    "phone number": "9661321111",
    "state": "Bihar",
    "city": "Araria",
    "pincode": "N/A",
    "address": "Near Relience Petrol Pump,Raniganj Road"
  },
  {
    "s": { "no": "64" },
    "brand": "Sonalika",
    "local dealer": "PATEL SALES AGENCY",
    "phone number": "9426067113",
    "state": "Gujarat",
    "city": "Aravalli",
    "pincode": "N/A",
    "address": "14, Ajanta Shopping Centre,"
  },
  {
    "s": { "no": "65" },
    "brand": "Sonalika",
    "local dealer": "Vrb Ganpati Automobiles Private Ltd",
    "phone number": "9696529297",
    "state": "Bihar",
    "city": "Arwal",
    "pincode": "N/A",
    "address": "Muradpur, Hujra, Baidrabad"
  },
  {
    "s": { "no": "66" },
    "brand": "Sonalika",
    "local dealer": "Amarnath Enterprises",
    "phone number": "9719397864",
    "state": "Uttar Pradesh",
    "city": "Auraiya",
    "pincode": "N/A",
    "address": "DIBIYAPUR ROAD"
  },
  {
    "s": { "no": "67" },
    "brand": "Sonalika",
    "local dealer": "Lord Krishna Motors",
    "phone number": "9259475651",
    "state": "Uttar Pradesh",
    "city": "Auraiya",
    "pincode": "N/A",
    "address": "DIBIYAPUR ROAD"
  },
  {
    "s": { "no": "68" },
    "brand": "Sonalika",
    "local dealer": "Raj Agencies",
    "phone number": "9420764509",
    "state": "Maharashtra",
    "city": "Aurangabad",
    "pincode": "N/A",
    "address": "SWAMIVIVEKANAND NAGAR,"
  },
  {
    "s": { "no": "69" },
    "brand": "Sonalika",
    "local dealer": "SHRI SAIRAJ MOTORS",
    "phone number": "7588531088",
    "state": "Maharashtra",
    "city": "Aurangabad",
    "pincode": "N/A",
    "address": "SHIVAJI CHOWK"
  },
  {
    "s": { "no": "70" },
    "brand": "Sonalika",
    "local dealer": "SHRIRAM TRACTOR AGENCIES",
    "phone number": "9422205031",
    "state": "Maharashtra",
    "city": "Aurangabad",
    "pincode": "N/A",
    "address": "SHIVAR BANGALA AURANGABAD ROAD"
  },
  {
    "s": { "no": "71" },
    "brand": "Sonalika",
    "local dealer": "Sairaj Motors",
    "phone number": "9372828008",
    "state": "Maharashtra",
    "city": "Aurangabad",
    "pincode": "N/A",
    "address": "Aurangabad Jalgaon road"
  },
  {
    "s": { "no": "72" },
    "brand": "Sonalika",
    "local dealer": "Triveni Automobiles",
    "phone number": "7380471818",
    "state": "Uttar Pradesh",
    "city": "Ayodhya",
    "pincode": "N/A",
    "address": "Shukul Bazar Road, Baba Bazar"
  },
  {
    "s": { "no": "73" },
    "brand": "Sonalika",
    "local dealer": "Kalika Motors",
    "phone number": "7376999793",
    "state": "Uttar Pradesh",
    "city": "Ayodhya",
    "pincode": "N/A",
    "address": "Mau Shivala, Raebareli Road"
  },
  {
    "s": { "no": "74" },
    "brand": "Sonalika",
    "local dealer": "Akashdeep Tractors",
    "phone number": "9839039234",
    "state": "Uttar Pradesh",
    "city": "Azamgarh",
    "pincode": "N/A",
    "address": "Azamgarh"
  },
  {
    "s": { "no": "75" },
    "brand": "Sonalika",
    "local dealer": "Radhey Krishna Motors",
    "phone number": "9219530201",
    "state": "Uttar Pradesh",
    "city": "Badaun",
    "pincode": "N/A",
    "address": "TEHSIL ROAD, BAREILLY TIRAHA"
  },
  {
    "s": { "no": "76" },
    "brand": "Sonalika",
    "local dealer": "S. K. Goel Enterprises",
    "phone number": "9412295145",
    "state": "Uttar Pradesh",
    "city": "Badaun",
    "pincode": "N/A",
    "address": "NEAR DATAGANJ TIRAHA"
  },
  {
    "s": { "no": "77" },
    "brand": "Sonalika",
    "local dealer": "Yadav Tractors",
    "phone number": "9719368577",
    "state": "Uttar Pradesh",
    "city": "Badaun",
    "pincode": "N/A",
    "address": "BILSI ROAD"
  },
  {
    "s": { "no": "78" },
    "brand": "Sonalika",
    "local dealer": "SHREE VANASHREE TRADING CO",
    "phone number": "9448903066",
    "state": "Karnataka",
    "city": "Bagalkot",
    "pincode": "N/A",
    "address": "1ST MAIN 1ST CROSS, JAYA NAGAR"
  },
  {
    "s": { "no": "79" },
    "brand": "Sonalika",
    "local dealer": "Kaluti Tractors",
    "phone number": "9900950008",
    "state": "Karnataka",
    "city": "Bagalkot",
    "pincode": "N/A",
    "address": "Near Shree Renuka Petroleum Services, Indian Oil Petrol Pump, Kudachi Road"
  },
  {
    "s": { "no": "80" },
    "brand": "Sonalika",
    "local dealer": "S. P. Automobiles",
    "phone number": "8979869395",
    "state": "Uttar Pradesh",
    "city": "Baghpat",
    "pincode": "N/A",
    "address": "Smt. Koshal Devi"
  },
  {
    "s": { "no": "81" },
    "brand": "Sonalika",
    "local dealer": "Shivaji Motors",
    "phone number": "9450425122",
    "state": "Uttar Pradesh",
    "city": "Bahraich",
    "pincode": "N/A",
    "address": "SHIVPUR ROAD ,"
  },
  {
    "s": { "no": "82" },
    "brand": "Sonalika",
    "local dealer": "Jai Maa Durga Tractors",
    "phone number": "9984991866",
    "state": "Uttar Pradesh",
    "city": "Bahraich",
    "pincode": "N/A",
    "address": "BHAGGADHWA MARKET,"
  },
  {
    "s": { "no": "83" },
    "brand": "Sonalika",
    "local dealer": "Choudhary Tractors",
    "phone number": "9450655906",
    "state": "Uttar Pradesh",
    "city": "Bahraich",
    "pincode": "N/A",
    "address": "BAHRAICE ROAD"
  },
  {
    "s": { "no": "84" },
    "brand": "Sonalika",
    "local dealer": "Modi Tractors",
    "phone number": "9425140188",
    "state": "Madhya Pradesh",
    "city": "Balaghat",
    "pincode": "N/A",
    "address": "TURKAR COMPLEXHANUMAN CHOWK"
  },
  {
    "s": { "no": "85" },
    "brand": "Sonalika",
    "local dealer": "Dev Tractors & Motors",
    "phone number": "9437194988",
    "state": "Orissa",
    "city": "Balangir",
    "pincode": "N/A",
    "address": "Satya Narayan Para, Sambalpur Road"
  },
  {
    "s": { "no": "86" },
    "brand": "Sonalika",
    "local dealer": "National Motors",
    "phone number": "9437001480",
    "state": "Orissa",
    "city": "Balasore",
    "pincode": "N/A",
    "address": "In Front of SBI, Janugarj In Front of SBI, Janugarj"
  },
  {
    "s": { "no": "87" },
    "brand": "Sonalika",
    "local dealer": "SREE ACHYUT AUTOMOBILES",
    "phone number": "9437166694",
    "state": "Orissa",
    "city": "Baleshwar",
    "pincode": "N/A",
    "address": "Auto Nagar, 2nd phase, Haladia padar, Berhampur"
  },
  {
    "s": { "no": "88" },
    "brand": "Sonalika",
    "local dealer": "Shiva Enterprises",
    "phone number": "9140554286",
    "state": "Uttar Pradesh",
    "city": "Ballia",
    "pincode": "N/A",
    "address": "Nearby Tehsil Office Bhimpura Road"
  },
  {
    "s": { "no": "89" },
    "brand": "Sonalika",
    "local dealer": "MANORMA TRACTORS",
    "phone number": "9425505352",
    "state": "Chhattisgarh",
    "city": "Balod",
    "pincode": "N/A",
    "address": "Vill.Sivani, Durg-Balod Road"
  },
  {
    "s": { "no": "90" },
    "brand": "Sonalika",
    "local dealer": "SHRI KRISHNA TRACTORS",
    "phone number": "9826111444",
    "state": "Chhattisgarh",
    "city": "Balod",
    "pincode": "N/A",
    "address": "LAXMI RICE MILL LIMAHI ROAD"
  },
  {
    "s": { "no": "91" },
    "brand": "Sonalika",
    "local dealer": "Laxmi Enterprises",
    "phone number": "9999515610",
    "state": "Uttar Pradesh",
    "city": "Balrampur",
    "pincode": "N/A",
    "address": "ANANDBAGH, BALRAMPUR, GONDA ROAD"
  },
  {
    "s": { "no": "92" },
    "brand": "Sonalika",
    "local dealer": "Agro Dynamic Agency",
    "phone number": "9839983868",
    "state": "Uttar Pradesh",
    "city": "Balrampur",
    "pincode": "N/A",
    "address": "AMYA BALRAMPUR ROAD,"
  },
  {
    "s": { "no": "93" },
    "brand": "Sonalika",
    "local dealer": "AMBIKA TRACTORS",
    "phone number": "9428981631",
    "state": "Gujarat",
    "city": "Banas Kantha",
    "pincode": "N/A",
    "address": "JETADA CIRCLE, DEODAR, TAL DEODAR"
  },
  {
    "s": { "no": "94" },
    "brand": "Sonalika",
    "local dealer": "SUNRISE TRACTORS",
    "phone number": "9426598773",
    "state": "Gujarat",
    "city": "Banas Kantha",
    "pincode": "N/A",
    "address": "DEESA HIGHWAY OPP. VAJEGADH"
  },
  {
    "s": { "no": "95" },
    "brand": "Sonalika",
    "local dealer": "Balaji Tractors",
    "phone number": "9624440040",
    "state": "Gujarat",
    "city": "Banas Kantha",
    "pincode": "N/A",
    "address": "Near Vivekanand High School , Tharad Hihway"
  },
  {
    "s": { "no": "96" },
    "brand": "Sonalika",
    "local dealer": "Gurudev Tractors",
    "phone number": "9415497007",
    "state": "Uttar Pradesh",
    "city": "Banda",
    "pincode": "N/A",
    "address": "CIVIL LINE ,BANDA9415497007"
  },
  {
    "s": { "no": "97" },
    "brand": "Sonalika",
    "local dealer": "Rakesh Trading Company",
    "phone number": "9415143320",
    "state": "Uttar Pradesh",
    "city": "Banda",
    "pincode": "N/A",
    "address": "KAMASIN ROAD,"
  },
  {
    "s": { "no": "98" },
    "brand": "Sonalika",
    "local dealer": "Sri Manjunatha Enterprises",
    "phone number": "9448100446",
    "state": "Karnataka",
    "city": "Bangalore",
    "pincode": "N/A",
    "address": "\"vishwakarma Nilaya\" Chandapura main road, Shivaji circle, Rudrappa layout"
  },
  {
    "s": { "no": "99" },
    "brand": "Sonalika",
    "local dealer": "Hms Sonalika Enterprises",
    "phone number": "9916442380",
    "state": "Karnataka",
    "city": "Bangalore Rural",
    "pincode": "N/A",
    "address": "A R Extension, No 7 , Kannurahally Road"
  },
  {
    "s": { "no": "100" },
    "brand": "Sonalika",
    "local dealer": "Shivtej Agrotech",
    "phone number": "9693331333",
    "state": "Bihar",
    "city": "Banka",
    "pincode": "N/A",
    "address": "C/o M/s Kali Ram Dokania, HPCL Petrol Pump, Banka Dhakamore Road"
  },
  {
    "s": { "no": "101" },
    "brand": "Sonalika",
    "local dealer": "Atulaya Tractors",
    "phone number": "9414103969",
    "state": "Rajasthan",
    "city": "Banswara",
    "pincode": "N/A",
    "address": "College Road.Opp Bandhan Vatika."
  },
  {
    "s": { "no": "102" },
    "brand": "Sonalika",
    "local dealer": "S.K Tractors",
    "phone number": "9918601521",
    "state": "Uttar Pradesh",
    "city": "Barabanki",
    "pincode": "N/A",
    "address": "FAIZABAD ROAD ,NEAR BANSAL PETROL PUMP,"
  },
  {
    "s": { "no": "103" },
    "brand": "Sonalika",
    "local dealer": "KASHMIR AUTOMOBILES",
    "phone number": "9419015417",
    "state": "Jammu and Kashmir",
    "city": "Baramula",
    "pincode": "N/A",
    "address": "KUPWARA ROAD, OPP. NEW COLONY"
  },
  {
    "s": { "no": "104" },
    "brand": "Sonalika",
    "local dealer": "Shri Ganesh Tractors",
    "phone number": "9929780716",
    "state": "Rajasthan",
    "city": "Baran",
    "pincode": "N/A",
    "address": "Opp. Krishi Upaj Mandi, Salpura Road"
  },
  {
    "s": { "no": "105" },
    "brand": "Sonalika",
    "local dealer": "Masoom Enterprises",
    "phone number": "7737007493",
    "state": "Rajasthan",
    "city": "Baran",
    "pincode": "N/A",
    "address": "Dharnawad Road,\nSALIMKHANCAG@GMAIL.COM"
  },
  {
    "s": { "no": "106" },
    "brand": "Sonalika",
    "local dealer": "Grover Automobiles",
    "phone number": "9837027222",
    "state": "Uttar Pradesh",
    "city": "Bareilly",
    "pincode": "N/A",
    "address": "141 CIVIL LINES, NEAR S.S.P OFFICE"
  },
  {
    "s": { "no": "107" },
    "brand": "Sonalika",
    "local dealer": "Rajiv Tractors",
    "phone number": "9412294382",
    "state": "Uttar Pradesh",
    "city": "Bareilly",
    "pincode": "N/A",
    "address": "C/O RAJIV SINGH RATHORC 913, RAJINDER NAGAR"
  },
  {
    "s": { "no": "108" },
    "brand": "Sonalika",
    "local dealer": "Shyamala Agency",
    "phone number": "9437577866",
    "state": "Orissa",
    "city": "Bargarh",
    "pincode": "N/A",
    "address": "Gurudwar Chhowk, Station Road,"
  },
  {
    "s": { "no": "109" },
    "brand": "Sonalika",
    "local dealer": "Suraj Motors",
    "phone number": "9437312909",
    "state": "Orissa",
    "city": "Bargarh",
    "pincode": "N/A",
    "address": "Plot no 513/1445, khata no 69/1227, Near Police station, Main road"
  },
  {
    "s": { "no": "110" },
    "brand": "Sonalika",
    "local dealer": "SRI KHETESHWAR MOTORS",
    "phone number": "9828143151",
    "state": "Rajasthan",
    "city": "Barmer",
    "pincode": "N/A",
    "address": "Chahtan Choraya"
  },
  {
    "s": { "no": "111" },
    "brand": "Sonalika",
    "local dealer": "Shree Chamunda Krishi Sewa Kendra",
    "phone number": "9460463074",
    "state": "Rajasthan",
    "city": "Barmer",
    "pincode": "N/A",
    "address": "Ramji Ka Goal"
  },
  {
    "s": { "no": "112" },
    "brand": "Sonalika",
    "local dealer": "Shree Khema Baba Tractors",
    "phone number": "9799080209",
    "state": "Rajasthan",
    "city": "Barmer",
    "pincode": "N/A",
    "address": "NH 25 Balotara Road"
  },
  {
    "s": { "no": "113" },
    "brand": "Sonalika",
    "local dealer": "SAT KARTAR TRACTORS",
    "phone number": "9876155481",
    "state": "Punjab",
    "city": "Barnala",
    "pincode": "N/A",
    "address": "DHANAULA ROAD"
  },
  {
    "s": { "no": "114" },
    "brand": "Sonalika",
    "local dealer": "ASHOKA MOTOR STORE",
    "phone number": "9435123269",
    "state": "Assam",
    "city": "Barpeta",
    "pincode": "N/A",
    "address": "Main Road, Barpeta Road"
  },
  {
    "s": { "no": "115" },
    "brand": "Sonalika",
    "local dealer": "NEW MAHAKAL TRACTOS SALES SERVICE",
    "phone number": "9425090267",
    "state": "Madhya Pradesh",
    "city": "Barwani",
    "pincode": "N/A",
    "address": "ANJAD ROAD, BARWANI"
  },
  {
    "s": { "no": "116" },
    "brand": "Sonalika",
    "local dealer": "Kumar Agency",
    "phone number": "9415037311",
    "state": "Uttar Pradesh",
    "city": "Basti",
    "pincode": "N/A",
    "address": "DAMODAR SINGH CHAURAHA ,BYE PASS"
  },
  {
    "s": { "no": "117" },
    "brand": "Sonalika",
    "local dealer": "Saroj Enterprises",
    "phone number": "9208555555",
    "state": "Uttar Pradesh",
    "city": "Basti",
    "pincode": "N/A",
    "address": "N.H. 24,"
  },
  {
    "s": { "no": "118" },
    "brand": "Sonalika",
    "local dealer": "BABA AGRO SALES",
    "phone number": "9417145380",
    "state": "Punjab",
    "city": "Bathinda",
    "pincode": "N/A",
    "address": "B-10 INDUSTRIAL AREA ITI CHOWK"
  },
  {
    "s": { "no": "119" },
    "brand": "Sonalika",
    "local dealer": "MAHADEV TRACTORS",
    "phone number": "9417354255",
    "state": "Punjab",
    "city": "Bathinda",
    "pincode": "N/A",
    "address": "BATHINDA BARNALA ROAD"
  },
  {
    "s": { "no": "120" },
    "brand": "Sonalika",
    "local dealer": "Laxmi Tractors",
    "phone number": "9422242757",
    "state": "Maharashtra",
    "city": "Beed",
    "pincode": "N/A",
    "address": "Nagar Road"
  },
  {
    "s": { "no": "121" },
    "brand": "Sonalika",
    "local dealer": "CHANDRA PRAKASH AUTOMOBILES",
    "phone number": "9431211033",
    "state": "Bihar",
    "city": "Begusarai",
    "pincode": "N/A",
    "address": "NH 31, DEONAH PO+PS TILRATH, BARAUNI BEGUSARAI ROAD"
  },
  {
    "s": { "no": "122" },
    "brand": "Sonalika",
    "local dealer": "SHRI SAGAR ENTERPRISES",
    "phone number": "7004519096",
    "state": "Bihar",
    "city": "Begusarai",
    "pincode": "N/A",
    "address": "NH-31, KESHAWE"
  },
  {
    "s": { "no": "123" },
    "brand": "Sonalika",
    "local dealer": "JYOTI TRACTORS",
    "phone number": "9901832791",
    "state": "Karnataka",
    "city": "Belagavi",
    "pincode": "N/A",
    "address": "PLOT NO.33, VIDYA NAGAR NIRAJ ROAD"
  },
  {
    "s": { "no": "124" },
    "brand": "Sonalika",
    "local dealer": "SUGAM MOTORS",
    "phone number": "9535193123",
    "state": "Karnataka",
    "city": "Belagavi",
    "pincode": "N/A",
    "address": "CST NO. 138/4, PLOT NO.67, A.P.M.C ROAD CST NO. 138/4, PLOT NO.67, A.P.M.C ROAD"
  },
  {
    "s": { "no": "125" },
    "brand": "Sonalika",
    "local dealer": "Shree Renuka Motors",
    "phone number": "9448164779",
    "state": "Karnataka",
    "city": "Belgaum",
    "pincode": "N/A",
    "address": "NEAR SBI BANKAPMC ROAD"
  },
  {
    "s": { "no": "126" },
    "brand": "Sonalika",
    "local dealer": "Jyoti Tractors",
    "phone number": "9901832791",
    "state": "Karnataka",
    "city": "Belgaum",
    "pincode": "N/A",
    "address": "Vidya NagarOpp-Durga Bar Miraj Road Athani"
  },
  {
    "s": { "no": "127" },
    "brand": "Sonalika",
    "local dealer": "Shree Sainath Agro Traders",
    "phone number": "9341104210",
    "state": "Karnataka",
    "city": "Belgaum",
    "pincode": "N/A",
    "address": "Apmc RoadGokak Belgaum"
  },
  {
    "s": { "no": "128" },
    "brand": "Sonalika",
    "local dealer": "Sri Venkateshwar Tractors",
    "phone number": "9731190977",
    "state": "Karnataka",
    "city": "Belgaum",
    "pincode": "N/A",
    "address": "Staion Back Road SikharkhanaBijapur Nidagundi"
  },
  {
    "s": { "no": "129" },
    "brand": "Sonalika",
    "local dealer": "Shree Renuka Tractors",
    "phone number": "9739587113",
    "state": "Karnataka",
    "city": "Belgaum",
    "pincode": "N/A",
    "address": "P.B.Road.Gandhinagr"
  },
  {
    "s": { "no": "130" },
    "brand": "Sonalika",
    "local dealer": "Sameer Motors",
    "phone number": "9632562977",
    "state": "Karnataka",
    "city": "Belgaum",
    "pincode": "N/A",
    "address": "Dandli Road Near Fish Market Halyal"
  },
  {
    "s": { "no": "131" },
    "brand": "Sonalika",
    "local dealer": "SUHAS MOTORS",
    "phone number": "9902233040",
    "state": "Karnataka",
    "city": "Belgaum",
    "pincode": "N/A",
    "address": "VIDYANAGAR, BELGAUM ROAD"
  },
  {
    "s": { "no": "132" },
    "brand": "Sonalika",
    "local dealer": "Itagi Motors",
    "phone number": "9620046414",
    "state": "Karnataka",
    "city": "Belgaum",
    "pincode": "N/A",
    "address": "D T Desai Farm House,Near Manjunath Rice Mill, P B Road Halaga"
  },
  {
    "s": { "no": "133" },
    "brand": "Sonalika",
    "local dealer": "Sangameshwar Automobiles",
    "phone number": "9590724079",
    "state": "Karnataka",
    "city": "Bellary",
    "pincode": "N/A",
    "address": "Hampi Road Hospet"
  },
  {
    "s": { "no": "134" },
    "brand": "Sonalika",
    "local dealer": "SRI GURU TRACTOR ENTERPRISES",
    "phone number": "9449880428",
    "state": "Karnataka",
    "city": "Bellary",
    "pincode": "N/A",
    "address": "MADALGATTA ROAD MADALGATTA ROAD"
  },
  {
    "s": { "no": "135" },
    "brand": "Sonalika",
    "local dealer": "Sri Bramarambha Motors",
    "phone number": "8722298449",
    "state": "Karnataka",
    "city": "Bellary",
    "pincode": "N/A",
    "address": "Survry No 4, No 16 A, Opp Industrial Area, New Bye Pass, Ananthpur Road"
  },
  {
    "s": { "no": "136" },
    "brand": "Sonalika",
    "local dealer": "Farmer First",
    "phone number": "7000716629",
    "state": "Chhattisgarh",
    "city": "Bemetra",
    "pincode": "N/A",
    "address": "Raipur Road, Kobiya\nb"
  },
  {
    "s": { "no": "137" },
    "brand": "Sonalika",
    "local dealer": "SANJEEVANI ENTERPRISES",
    "phone number": "8083347500",
    "state": "Bihar",
    "city": "Bettiah",
    "pincode": "N/A",
    "address": "NEAR PETROL PUMP, STATION ROAD NEAR PETROL PUMP, STATION ROAD"
  },
  {
    "s": { "no": "138" },
    "brand": "Sonalika",
    "local dealer": "SHRI TIRUPATI BALAJI TRACTORS",
    "phone number": "8770304087",
    "state": "Madhya Pradesh",
    "city": "Betul",
    "pincode": "N/A",
    "address": "BADORA CHOWK BADORA CHOWK"
  },
  {
    "s": { "no": "139" },
    "brand": "Sonalika",
    "local dealer": "MAHAJAN KRISHISEWA KENDRA",
    "phone number": "9425440698",
    "state": "Madhya Pradesh",
    "city": "Betul",
    "pincode": "N/A",
    "address": "PARIHAR SHOPPING COMPLEX ,MULTAI PARIHAR SHOPPING COMPLEX ,MULTAI"
  },
  {
    "s": { "no": "140" },
    "brand": "Sonalika",
    "local dealer": "V.K. Automobile",
    "phone number": "9721970777",
    "state": "Uttar Pradesh",
    "city": "Bhadohi Nagar",
    "pincode": "N/A",
    "address": "G.T ROAD ,PARAV"
  },
  {
    "s": { "no": "141" },
    "brand": "Sonalika",
    "local dealer": "Dunnock Deo",
    "phone number": "9437013588",
    "state": "Orissa",
    "city": "Bhadrak",
    "pincode": "N/A",
    "address": "Charampa Charampa"
  },
  {
    "s": { "no": "142" },
    "brand": "Sonalika",
    "local dealer": "SAH AGENCY",
    "phone number": "9934877060",
    "state": "Bihar",
    "city": "Bhagalpur",
    "pincode": "N/A",
    "address": "Shyampur Chauk, N.T.P.C. Road"
  },
  {
    "s": { "no": "143" },
    "brand": "Sonalika",
    "local dealer": "Star Sonalika Centre",
    "phone number": "9923188633",
    "state": "Maharashtra",
    "city": "Bhandara",
    "pincode": "N/A",
    "address": "TULSI NIWAS RAILWAY STATION ROADTAL. SARAK ARJUNI, Saundad"
  },
  {
    "s": { "no": "144" },
    "brand": "Sonalika",
    "local dealer": "VILASSINI AGENCIES",
    "phone number": "9850303540",
    "state": "Maharashtra",
    "city": "Bhandara",
    "pincode": "N/A",
    "address": "VILASSINI AGENCIES\t101, SHAHTRI NAGAR"
  },
  {
    "s": { "no": "145" },
    "brand": "Sonalika",
    "local dealer": "Modi Sonalika Center",
    "phone number": "9923188633",
    "state": "Maharashtra",
    "city": "Bhandara",
    "pincode": "N/A",
    "address": "NH 6"
  },
  {
    "s": { "no": "146" },
    "brand": "Sonalika",
    "local dealer": "H.R TRACTORS & MOTORS",
    "phone number": "9314760244",
    "state": "Rajasthan",
    "city": "Bharatpur",
    "pincode": "N/A",
    "address": "DHOLPUR ROAD, OPPOSITE BIJALI GHAR, RUPBAS, TEHSIL RUPBAS"
  },
  {
    "s": { "no": "147" },
    "brand": "Sonalika",
    "local dealer": "Tejasvi Motors",
    "phone number": "9829351522",
    "state": "Rajasthan",
    "city": "Bharatpur",
    "pincode": "N/A",
    "address": "1st, Tejasvi Motors, Near Anokhi Hotel, Sewar Mathura By paas"
  },
  {
    "s": { "no": "148" },
    "brand": "Sonalika",
    "local dealer": "Shriram Agro Agency - Associate Dealer",
    "phone number": "8005990232",
    "state": "Rajasthan",
    "city": "Bharatpur",
    "pincode": "N/A",
    "address": "Bharatpur Road,Bsnl Office Ke Samne\ntejsinghbayana1990@Gmail.Com"
  },
  {
    "s": { "no": "149" },
    "brand": "Sonalika",
    "local dealer": "Bhavy Tractors Associate Dealer",
    "phone number": "9898125519",
    "state": "Gujarat",
    "city": "Bharuch",
    "pincode": "N/A",
    "address": "Shop no 28, 29, 30, Pramukh Swami Complex, Opp Swaminarayan Temple, Near Jadeshwar"
  },
  {
    "s": { "no": "150" },
    "brand": "Sonalika",
    "local dealer": "Shree Ambica Technotech Private Limited",
    "phone number": "9898169428",
    "state": "Gujarat",
    "city": "Bharuch",
    "pincode": "N/A",
    "address": "Behind F M Amin Petrol Pump, Rajpipla Chowkdi, N H 8"
  },
  {
    "s": { "no": "151" },
    "brand": "Sonalika",
    "local dealer": "Shree Hari Tractors Asc Dealer",
    "phone number": "9909468218",
    "state": "Gujarat",
    "city": "Bharuch",
    "pincode": "N/A",
    "address": "Shop No, 9 to 11, Mohammedi-2 shopping, Opp. AL-Mahmood General hospital, Near Dabha crossing"
  },
  {
    "s": { "no": "152" },
    "brand": "Sonalika",
    "local dealer": "A.S. WORLD",
    "phone number": "9979291229",
    "state": "Gujarat",
    "city": "Bhavnagar",
    "pincode": "N/A",
    "address": "NEAR TOP 3 CIRCLE TALAJA ROAD"
  },
  {
    "s": { "no": "153" },
    "brand": "Sonalika",
    "local dealer": "ADITYA TRACTORS",
    "phone number": "9687513303",
    "state": "Gujarat",
    "city": "Bhavnagar",
    "pincode": "N/A",
    "address": "PALITANA ROAD, NEAR INDIAN GAS GODOWN"
  },
  {
    "s": { "no": "154" },
    "brand": "Sonalika",
    "local dealer": "SHRI RAM TRACTORS",
    "phone number": "7874441670",
    "state": "Gujarat",
    "city": "Bhavnagar",
    "pincode": "N/A",
    "address": "RAJULA - BHAVNAGAR HIGHWAY UMNIYAVADAR"
  },
  {
    "s": { "no": "156" },
    "brand": "Sonalika",
    "local dealer": "ARIHANT AUTOMOBILES",
    "phone number": "9414572960",
    "state": "Rajasthan",
    "city": "Bhilwara",
    "pincode": "N/A",
    "address": "BEAWER ROAD PRATAP PURA"
  },
  {
    "s": { "no": "157" },
    "brand": "Sonalika",
    "local dealer": "RADHEY AGRO SERVICES",
    "phone number": "9414676822",
    "state": "Rajasthan",
    "city": "Bhilwara",
    "pincode": "N/A",
    "address": "TRIVENI CHOURAHA, VIA BIGOD MANDALGARH ROAD"
  },
  {
    "s": { "no": "158" },
    "brand": "Sonalika",
    "local dealer": "DEV AGENCY",
    "phone number": "9610659309",
    "state": "Rajasthan",
    "city": "Bhilwara",
    "pincode": "N/A",
    "address": "NEAR POLICE STATION BHILWRA ROAD SHAHPURA"
  },
  {
    "s": { "no": "159" },
    "brand": "Sonalika",
    "local dealer": "Shivam Tractors Agency",
    "phone number": "8890424186",
    "state": "Rajasthan",
    "city": "Bhilwara",
    "pincode": "N/A",
    "address": "A-409, Azad Nagar"
  },
  {
    "s": { "no": "160" },
    "brand": "Sonalika",
    "local dealer": "Devshree Enterprises",
    "phone number": "9610023500",
    "state": "Rajasthan",
    "city": "Bhilwara",
    "pincode": "N/A",
    "address": "Bhilwara Road, Haripura Chauraha,"
  },
  {
    "s": { "no": "161" },
    "brand": "Sonalika",
    "local dealer": "SHRI DEVI DAYAL AUTOMOBILES",
    "phone number": "9926291616",
    "state": "Madhya Pradesh",
    "city": "Bhind",
    "pincode": "N/A",
    "address": "17 BATALUIYAN IN FRONT OF GATE NO. 3 ETAVA ROAD BHIND 017 BATALUIYAN IN FRONT OF GATE NO. 3 ETAVA ROAD BHIND"
  },
  {
    "s": { "no": "162" },
    "brand": "Sonalika",
    "local dealer": "SHRI BABA GYAN NATH AUTO COMPANY",
    "phone number": "9728775342",
    "state": "Haryana",
    "city": "Bhiwani",
    "pincode": "N/A",
    "address": "LOHARU ROAD LOHARU ROAD"
  },
  {
    "s": { "no": "163" },
    "brand": "Sonalika",
    "local dealer": "ANIL TRACTORS",
    "phone number": "9416589815",
    "state": "Haryana",
    "city": "Bhiwani",
    "pincode": "N/A",
    "address": "RAJGARH ROAD"
  },
  {
    "s": { "no": "164" },
    "brand": "Sonalika",
    "local dealer": "Prestige Automobiles LLP",
    "phone number": "9724934455",
    "state": "Haryana",
    "city": "Bhiwani",
    "pincode": "N/A",
    "address": "Plot no- 160,161,163,164, Gulshan Nagar, Next to Kanha farm, Hansi Road, Tosham, Dist ï¿½Bhiwani, Pin -127040."
  },
  {
    "s": { "no": "165" },
    "brand": "Sonalika",
    "local dealer": "TRACTOR HOUSE",
    "phone number": "9939193856",
    "state": "Bihar",
    "city": "Bhojpur",
    "pincode": "N/A",
    "address": "Janaki Market, Karuman Tolla"
  },
  {
    "s": { "no": "166" },
    "brand": "Sonalika",
    "local dealer": "SHRI DAYODAY SALES ORGANISATION",
    "phone number": "9425430409",
    "state": "Madhya Pradesh",
    "city": "Bhopal",
    "pincode": "N/A",
    "address": "H NO 86, OPPOSITE PUTTHAMIL GATE CHHOLA ROAD"
  },
  {
    "s": { "no": "167" },
    "brand": "Sonalika",
    "local dealer": "Modern Agro Motors & tractors Pvt Ltd",
    "phone number": "9437074848",
    "state": "Orissa",
    "city": "Bhubaneswar",
    "pincode": "N/A",
    "address": "138 Ashok Nagar, Bhubaneswar"
  },
  {
    "s": { "no": "168" },
    "brand": "Sonalika",
    "local dealer": "M/S Om Tractors",
    "phone number": "9342619232",
    "state": "Karnataka",
    "city": "Bidar",
    "pincode": "N/A",
    "address": "Shop.No.03 Prathap Nagar Navbad"
  },
  {
    "s": { "no": "169" },
    "brand": "Sonalika",
    "local dealer": "Jai Bhavani Motors",
    "phone number": "9449587035",
    "state": "Karnataka",
    "city": "Bidar",
    "pincode": "N/A",
    "address": "Opp Railway Gate"
  },
  {
    "s": { "no": "170" },
    "brand": "Sonalika",
    "local dealer": "KISAN SAMRUDDHI KENDRA",
    "phone number": "9538916247",
    "state": "Karnataka",
    "city": "Bijapur",
    "pincode": "N/A",
    "address": "K.C NAGAR SHOLAPUR ROAD"
  },
  {
    "s": { "no": "171" },
    "brand": "Sonalika",
    "local dealer": "M.S.KISAN MOTORS",
    "phone number": "9481181010",
    "state": "Karnataka",
    "city": "Bijapur",
    "pincode": "N/A",
    "address": "AGARKHED ROAD, BESIDE ITI COLLEGE AGARKHED ROAD, BESIDE ITI COLLEGE"
  },
  {
    "s": { "no": "172" },
    "brand": "Sonalika",
    "local dealer": "Rana Automobiles",
    "phone number": "9761163183",
    "state": "Uttar Pradesh",
    "city": "Bijnor",
    "pincode": "N/A",
    "address": "MORADABAD ROADNEAR SHIV MANDIR CHOWK"
  },
  {
    "s": { "no": "173" },
    "brand": "Sonalika",
    "local dealer": "Shri Sai Tractors",
    "phone number": "9760909130",
    "state": "Uttar Pradesh",
    "city": "Bijnor",
    "pincode": "N/A",
    "address": "ALAVALPUR, MORADABA ROAD,"
  },
  {
    "s": { "no": "174" },
    "brand": "Sonalika",
    "local dealer": "Baliyan Traders",
    "phone number": "9760024888",
    "state": "Uttar Pradesh",
    "city": "Bijnor",
    "pincode": "N/A",
    "address": "Shakti Nagar, Ring Road, Near Railway crossing,"
  },
  {
    "s": { "no": "175" },
    "brand": "Sonalika",
    "local dealer": "S R MOTORS",
    "phone number": "9251394445",
    "state": "Rajasthan",
    "city": "Bikaner",
    "pincode": "N/A",
    "address": "DANTTOR-RAWALA ROAD"
  },
  {
    "s": { "no": "176" },
    "brand": "Sonalika",
    "local dealer": "Jagdamba Tractor Company",
    "phone number": "9784628536",
    "state": "Rajasthan",
    "city": "Bikaner",
    "pincode": "N/A",
    "address": "KAILASH SIYAG & MANOJ JAT"
  },
  {
    "s": { "no": "177" },
    "brand": "Sonalika",
    "local dealer": "K. R. Kisan Seva Kendra",
    "phone number": "9413360248",
    "state": "Rajasthan",
    "city": "Bikaner",
    "pincode": "N/A",
    "address": "VPO Derajsar, Tehsil Sri Dungargarh\nravishrm48@gmail.com"
  },
  {
    "s": { "no": "178" },
    "brand": "Sonalika",
    "local dealer": "Pawanputra Tractors",
    "phone number": "9660289991",
    "state": "Rajasthan",
    "city": "Bikaner",
    "pincode": "N/A",
    "address": "N H 15, PINKCITY COLONY"
  },
  {
    "s": { "no": "179" },
    "brand": "Sonalika",
    "local dealer": "Shiva Motors",
    "phone number": "9414125291",
    "state": "Rajasthan",
    "city": "Bikaner",
    "pincode": "N/A",
    "address": "Shoypat Dharam Kante Ke Pass, Plot No 62, Infront of Jat Dharamshala, Boriyawali,"
  },
  {
    "s": { "no": "180" },
    "brand": "Sonalika",
    "local dealer": "Shree Balaji Tractors",
    "phone number": "9784480799",
    "state": "Rajasthan",
    "city": "Bikaner",
    "pincode": "N/A",
    "address": "Mistri Market,Ranjeetpura Road"
  },
  {
    "s": { "no": "181" },
    "brand": "Sonalika",
    "local dealer": "ANIL AGENCIES",
    "phone number": "9179193023",
    "state": "Chhattisgarh",
    "city": "Bilaspur",
    "pincode": "N/A",
    "address": "INDUSTRIAL ESTATE YADUNANDAN COLONY ROAD TIFRA"
  },
  {
    "s": { "no": "182" },
    "brand": "Sonalika",
    "local dealer": "RANA TRACTORS",
    "phone number": "9418122286",
    "state": "Himachal Pradesh",
    "city": "Bilaspur",
    "pincode": "N/A",
    "address": "P.O JASSUR TEHSIL. NURPUR"
  },
  {
    "s": { "no": "183" },
    "brand": "Sonalika",
    "local dealer": "BAJRANG BALI TRADERS",
    "phone number": "9431379150",
    "state": "Jharkhand",
    "city": "Bokaro",
    "pincode": "N/A",
    "address": "N.H.32, TELGARIA MORE, CHAS"
  },
  {
    "s": { "no": "184" },
    "brand": "Sonalika",
    "local dealer": "SHREE GANESH TRADERS",
    "phone number": "8340715131",
    "state": "Jharkhand",
    "city": "Bokaro",
    "pincode": "N/A",
    "address": "NH 23, MAIN ROAD"
  },
  {
    "s": { "no": "185" },
    "brand": "Sonalika",
    "local dealer": "SHIV POOJA TRACTORS $ FARM EQUIPMENTS",
    "phone number": "9998987072",
    "state": "Gujarat",
    "city": "Botad",
    "pincode": "N/A",
    "address": "RAJKOT BHAVNAGAR HIGHWAY DHASA GAM"
  },
  {
    "s": { "no": "186" },
    "brand": "Sonalika",
    "local dealer": "Kumar Automobile",
    "phone number": "9412808560",
    "state": "Uttar Pradesh",
    "city": "Bulandshahar",
    "pincode": "N/A",
    "address": "NEAR SAINI DHARAMSALA G.T ROAD"
  },
  {
    "s": { "no": "187" },
    "brand": "Sonalika",
    "local dealer": "Kumar Tractors",
    "phone number": "6397888981",
    "state": "Uttar Pradesh",
    "city": "Bulandshahar",
    "pincode": "N/A",
    "address": "GT Road, Vill- Sabalpur, Post- Debai"
  },
  {
    "s": { "no": "188" },
    "brand": "Sonalika",
    "local dealer": "Maa Vaishno Tractors",
    "phone number": "9837968587",
    "state": "Uttar Pradesh",
    "city": "Bulandshahar",
    "pincode": "N/A",
    "address": "Ahar Bye Pass Road"
  },
  {
    "s": { "no": "189" },
    "brand": "Sonalika",
    "local dealer": "Siana Automobiles",
    "phone number": "9910023690",
    "state": "Uttar Pradesh",
    "city": "Bulandshahar",
    "pincode": "N/A",
    "address": "Opp.Noorani Masjid"
  },
  {
    "s": { "no": "190" },
    "brand": "Sonalika",
    "local dealer": "Solanki Tractors",
    "phone number": "9412612236",
    "state": "Uttar Pradesh",
    "city": "Bulandshahar",
    "pincode": "N/A",
    "address": "G T ROAD"
  },
  {
    "s": { "no": "191" },
    "brand": "Sonalika",
    "local dealer": "ADITYA MOTORS",
    "phone number": "9850270599",
    "state": "Maharashtra",
    "city": "Buldana",
    "pincode": "N/A",
    "address": "SAMADHAN PATIL JINNING MILL NEAR OLD BUS STOP"
  },
  {
    "s": { "no": "192" },
    "brand": "Sonalika",
    "local dealer": "Jamadar Tractors Sales And Service",
    "phone number": "8888707011",
    "state": "Maharashtra",
    "city": "Buldana",
    "pincode": "N/A",
    "address": "Aurangabad Road"
  },
  {
    "s": { "no": "193" },
    "brand": "Sonalika",
    "local dealer": "Shriram Tractor Sales And Service",
    "phone number": "9665222215",
    "state": "Maharashtra",
    "city": "Buldana",
    "pincode": "N/A",
    "address": "Jalna Road"
  },
  {
    "s": { "no": "194" },
    "brand": "Sonalika",
    "local dealer": "BALA JI BORWELL",
    "phone number": "9929922936",
    "state": "Rajasthan",
    "city": "Bundi",
    "pincode": "N/A",
    "address": "UNIYARA JAIPUR ROAD, NAINWA"
  },
  {
    "s": { "no": "195" },
    "brand": "Sonalika",
    "local dealer": "L. K. Tractors & Motors",
    "phone number": "8559888881",
    "state": "Rajasthan",
    "city": "Bundi",
    "pincode": "N/A",
    "address": "New Maansarovar Colony, Chittor Road,"
  },
  {
    "s": { "no": "196" },
    "brand": "Sonalika",
    "local dealer": "KIRAN SALES",
    "phone number": "9097777776",
    "state": "Bihar",
    "city": "Buxar",
    "pincode": "N/A",
    "address": "NH 84, ARRAH BUXER ROAD, NAYA BHOJPUR"
  },
  {
    "s": { "no": "197" },
    "brand": "Sonalika",
    "local dealer": "Raj Traders",
    "phone number": "8002806821",
    "state": "Bihar",
    "city": "Buxar",
    "pincode": "N/A",
    "address": "NH-84 Ara Main Road,Ahirauli More Golambar"
  },
  {
    "s": { "no": "198" },
    "brand": "Sonalika",
    "local dealer": "ESHWARI TRACTORS",
    "phone number": "9008658752",
    "state": "Karnataka",
    "city": "Chamarajanagar",
    "pincode": "N/A",
    "address": "OPP. POLYTECHNIC COLLEGE NANJANAGUD MAIN ROAD"
  },
  {
    "s": { "no": "199" },
    "brand": "Sonalika",
    "local dealer": "Rastogi Auto Tractor",
    "phone number": "9795308200",
    "state": "Uttar Pradesh",
    "city": "Chandauli",
    "pincode": "N/A",
    "address": "KAMALPUR CHANDAULI, INFRONT OF LOC PETROL PUMPKAMALPUR, TEHSIL SAKALDIHA"
  },
  {
    "s": { "no": "200" },
    "brand": "Sonalika",
    "local dealer": "SUGAL TRACTORS",
    "phone number": "9822569647",
    "state": "Maharashtra",
    "city": "Chandrapur",
    "pincode": "N/A",
    "address": "NEW SUGAL FABRICATORS NAGPUR CHANDRAPUR HIGHWAY"
  },
  {
    "s": { "no": "201" },
    "brand": "Sonalika",
    "local dealer": "Ram Motors",
    "phone number": "9822296845",
    "state": "Maharashtra",
    "city": "Chandrapur",
    "pincode": "N/A",
    "address": "Opp , Govt Engg. College, Ballarshah Road"
  },
  {
    "s": { "no": "202" },
    "brand": "Sonalika",
    "local dealer": "Shri Yadao Bandhu Tractors",
    "phone number": "9422908882",
    "state": "Maharashtra",
    "city": "Chandrapur",
    "pincode": "N/A",
    "address": "Near Dr Satish Chintawar Hospital, Main Road"
  },
  {
    "s": { "no": "203" },
    "brand": "Sonalika",
    "local dealer": "Sharda Trading Centre",
    "phone number": "9431014955",
    "state": "Bihar",
    "city": "Chapra",
    "pincode": "N/A",
    "address": "Sherpur, NH-19, PO: Ghaghta"
  },
  {
    "s": { "no": "204" },
    "brand": "Sonalika",
    "local dealer": "BHARAT TRACTORS",
    "phone number": "9992223050",
    "state": "Haryana",
    "city": "Charkhi Dadri",
    "pincode": "N/A",
    "address": "DELHI ROAD ,AUTO MARKET AUTO MARKET"
  },
  {
    "s": { "no": "205" },
    "brand": "Sonalika",
    "local dealer": "P.J ENTERPRISES",
    "phone number": "9431140388",
    "state": "Jharkhand",
    "city": "Chatra",
    "pincode": "N/A",
    "address": "PANSALA ROAD, NEAR NEW PETROL PUMP PANSALA ROAD, NEAR NEW PETROL PUMP"
  },
  {
    "s": { "no": "206" },
    "brand": "Sonalika",
    "local dealer": "BUNDELKHAND MACHINERY COMPANY",
    "phone number": "9415061146",
    "state": "Madhya Pradesh",
    "city": "Chhatarpur",
    "pincode": "N/A",
    "address": "MAHOBA CHATTARPUR ROAD ,CHHATARPUR MAHOBA CHATTARPUR ROAD ,CHHATARPUR"
  },
  {
    "s": { "no": "207" },
    "brand": "Sonalika",
    "local dealer": "Khajuraho Auto Mobiles",
    "phone number": "8839974408",
    "state": "Madhya Pradesh",
    "city": "Chhatarpur",
    "pincode": "N/A",
    "address": "House Number 112, Khajuraho Road"
  },
  {
    "s": { "no": "208" },
    "brand": "Sonalika",
    "local dealer": "Rewaram motors",
    "phone number": "9425147939",
    "state": "Madhya Pradesh",
    "city": "Chhindwara",
    "pincode": "N/A",
    "address": "PADAM COMPLEX SEONI ROAD"
  },
  {
    "s": { "no": "209" },
    "brand": "Sonalika",
    "local dealer": "Rewaram Motors",
    "phone number": "9425147939",
    "state": "Madhya Pradesh",
    "city": "Chhindwara",
    "pincode": "N/A",
    "address": "PADAM COMPLEX, SEONI ROAD ,CHHINDWARA"
  },
  {
    "s": { "no": "210" },
    "brand": "Sonalika",
    "local dealer": "Karnataka Engineering Works",
    "phone number": "9342535576",
    "state": "Karnataka",
    "city": "Chikkaballapur",
    "pincode": "N/A",
    "address": "562101"
  },
  {
    "s": { "no": "211" },
    "brand": "Sonalika",
    "local dealer": "Spintek Automobiles Pvt. Ltd.",
    "phone number": "9845079635",
    "state": "Karnataka",
    "city": "Chikkaballapur",
    "pincode": "N/A",
    "address": "Corp Office: C S N Towers, No- 464, 2nd Floor, 2nd Cross, Opo Road, Above Bank Of India"
  },
  {
    "s": { "no": "212" },
    "brand": "Sonalika",
    "local dealer": "G K TRACTORS",
    "phone number": "9900250818",
    "state": "Karnataka",
    "city": "Chikkaballapur",
    "pincode": "N/A",
    "address": "NEAR HOUSING BOARD COLONY BUS STAND ROAD"
  },
  {
    "s": { "no": "213" },
    "brand": "Sonalika",
    "local dealer": "SRI SOMESWARA TRACTORS",
    "phone number": "9880007747",
    "state": "Karnataka",
    "city": "Chikmagalur",
    "pincode": "N/A",
    "address": "# 157, C/O RAVI N.H 206 KADUR-BIRUR ROAD,"
  },
  {
    "s": { "no": "214" },
    "brand": "Sonalika",
    "local dealer": "Tejas Motors",
    "phone number": "9945891945 8194222199",
    "state": "Karnataka",
    "city": "Chitradurga",
    "pincode": "N/A",
    "address": "Vinayaka Complex Opposite State Bank Of India Apmc Road"
  },
  {
    "s": { "no": "215" },
    "brand": "Sonalika",
    "local dealer": "Amar Automobiles",
    "phone number": "9415556078",
    "state": "Uttar Pradesh",
    "city": "Chitrakoot",
    "pincode": "N/A",
    "address": "BEDI PULIA,, AMANPUR,"
  },
  {
    "s": { "no": "216" },
    "brand": "Sonalika",
    "local dealer": "SHRI CHARBHUJA TRADERS",
    "phone number": "9414254516",
    "state": "Rajasthan",
    "city": "Chittaurgarh",
    "pincode": "N/A",
    "address": "24 KIDWAI NAGAR, NEAR ROADWAYS DEPOT"
  },
  {
    "s": { "no": "217" },
    "brand": "Sonalika",
    "local dealer": "MATESHWARI TRACTORS",
    "phone number": "9928991207",
    "state": "Rajasthan",
    "city": "Chittaurgarh",
    "pincode": "N/A",
    "address": "TEHSIL ROAD"
  },
  {
    "s": { "no": "218" },
    "brand": "Sonalika",
    "local dealer": "SHRI CHARBHUJA AGRO",
    "phone number": "9414109613",
    "state": "Rajasthan",
    "city": "Chittaurgarh",
    "pincode": "N/A",
    "address": "BOHEDA ROAD, GHANTAGHAR CHORAHA"
  },
  {
    "s": { "no": "219" },
    "brand": "Sonalika",
    "local dealer": "New Dhaker Tractor",
    "phone number": "9784049600",
    "state": "Rajasthan",
    "city": "Chittaurgarh",
    "pincode": "N/A",
    "address": "C-19-65 Vigyan Nagar ,"
  },
  {
    "s": { "no": "220" },
    "brand": "Sonalika",
    "local dealer": "Vikas Jain",
    "phone number": "7014502122",
    "state": "Rajasthan",
    "city": "Chittaurgarh",
    "pincode": "N/A",
    "address": "Near Chungi Naka, Idgaha chouraha, Udaipur Road"
  },
  {
    "s": { "no": "221" },
    "brand": "Sonalika",
    "local dealer": "Agro Tractors",
    "phone number": "9441892278",
    "state": "Andhra Pradesh",
    "city": "Chittoor",
    "pincode": "N/A",
    "address": "PLOT NO. 23/96/A INDUSTRIAL ESTATE"
  },
  {
    "s": { "no": "222" },
    "brand": "Sonalika",
    "local dealer": "SRI DIVYA GAYATRI AUTO ENTERPRISES",
    "phone number": "9985283165",
    "state": "Andhra Pradesh",
    "city": "Chittoor",
    "pincode": "N/A",
    "address": "#4-105,Devatha Nagar, CTM ROAD"
  },
  {
    "s": { "no": "223" },
    "brand": "Sonalika",
    "local dealer": "M R AUTOMOTIVES",
    "phone number": "9492378760",
    "state": "Andhra Pradesh",
    "city": "Chittoor",
    "pincode": "N/A",
    "address": "NEAR NARAYANADRI HOSPITAL, RENIGUNTA ROAD"
  },
  {
    "s": { "no": "224" },
    "brand": "Sonalika",
    "local dealer": "SHIVA TRACTORS",
    "phone number": "9413990481",
    "state": "Rajasthan",
    "city": "Churu",
    "pincode": "N/A",
    "address": "Near Sale Tax Check-Post, Hissar Road"
  },
  {
    "s": { "no": "225" },
    "brand": "Sonalika",
    "local dealer": "SHRI LAXMI TRACTORS",
    "phone number": "9950884058",
    "state": "Rajasthan",
    "city": "Churu",
    "pincode": "N/A",
    "address": "MOTOR MARKET, RATANAGARH ROAD"
  },
  {
    "s": { "no": "227" },
    "brand": "Sonalika",
    "local dealer": "S.M.G.TRACTORS",
    "phone number": "9440894487",
    "state": "Andhra Pradesh",
    "city": "Cuddapah",
    "pincode": "N/A",
    "address": "# 58/405-12-2-1, OPP-R& B WORK SHOP AKKAYAPALLE"
  },
  {
    "s": { "no": "228" },
    "brand": "Sonalika",
    "local dealer": "Sri Venkateswara Tractors",
    "phone number": "8555027171",
    "state": "Andhra Pradesh",
    "city": "Cuddapah",
    "pincode": "N/A",
    "address": "D.NO,11 274/16,M.G.Auto Nagar,Mydukur road"
  },
  {
    "s": { "no": "229" },
    "brand": "Sonalika",
    "local dealer": "Sri Venkateswara Tractors",
    "phone number": "7382470047",
    "state": "Andhra Pradesh",
    "city": "Cuddapah",
    "pincode": "N/A",
    "address": "D.No. 2/164-B-11, Kadapa To Tirupati Main Road, Revenue Ward No.2"
  },
  {
    "s": { "no": "231" },
    "brand": "Sonalika",
    "local dealer": "RAJ TRACTORS",
    "phone number": "9179885103",
    "state": "Madhya Pradesh",
    "city": "Damoh",
    "pincode": "N/A",
    "address": "ANDHIYARI BAGICHA ,HATTA"
  },
  {
    "s": { "no": "232" },
    "brand": "Sonalika",
    "local dealer": "J S Tractors",
    "phone number": "6260236207",
    "state": "Chhattisgarh",
    "city": "Dantewada",
    "pincode": "N/A",
    "address": "Main Road"
  },
  {
    "s": { "no": "233" },
    "brand": "Sonalika",
    "local dealer": "D K Auto",
    "phone number": "9835839576",
    "state": "Bihar",
    "city": "Darbhanga",
    "pincode": "N/A",
    "address": "NH 57, Maullaganj, Alinagar"
  },
  {
    "s": { "no": "234" },
    "brand": "Sonalika",
    "local dealer": "VIKASH VEHICLES PVT. LTD",
    "phone number": "9425110061",
    "state": "Madhya Pradesh",
    "city": "Datia",
    "pincode": "N/A",
    "address": "NEAR NARSINGH TEELA MANDIR RAJGARH CHAURAHA DATIA NEAR NARSINGH TEELA MANDIR RAJGARH CHAURAHA DATIA"
  },
  {
    "s": { "no": "235" },
    "brand": "Sonalika",
    "local dealer": "G S Tractors & Motors",
    "phone number": "9928263574",
    "state": "Rajasthan",
    "city": "Dausa",
    "pincode": "N/A",
    "address": "VPO, Gudliya, Via - Badhal, Panchayat Samiti- Govindgarh, Tehsil, Chomu"
  },
  {
    "s": { "no": "236" },
    "brand": "Sonalika",
    "local dealer": "Nataraja Tractors",
    "phone number": "9448923787",
    "state": "Karnataka",
    "city": "Davanagere",
    "pincode": "N/A",
    "address": "P.B. Road, P.B. Road,"
  },
  {
    "s": { "no": "237" },
    "brand": "Sonalika",
    "local dealer": "NEW DEOGHAR TRACTORS",
    "phone number": "9431158243",
    "state": "Jharkhand",
    "city": "Deoghar",
    "pincode": "N/A",
    "address": "S.S.M JALAN ROAD, DEOGHAR"
  },
  {
    "s": { "no": "238" },
    "brand": "Sonalika",
    "local dealer": "Bhagat Trading Company",
    "phone number": "9838078811",
    "state": "Uttar Pradesh",
    "city": "Deoria",
    "pincode": "N/A",
    "address": "PURWA CHAURAHA, HATA ROAD,"
  },
  {
    "s": { "no": "239" },
    "brand": "Sonalika",
    "local dealer": "Baba Tractors",
    "phone number": "9450479430",
    "state": "Uttar Pradesh",
    "city": "Deoria",
    "pincode": "N/A",
    "address": "Kotwali Road"
  },
  {
    "s": { "no": "240" },
    "brand": "Sonalika",
    "local dealer": "SOLANKI TRACTORS AND MOTORS",
    "phone number": "9893373915",
    "state": "Madhya Pradesh",
    "city": "Dewas",
    "pincode": "N/A",
    "address": "12, GIRIRAJDHAM, MAKXI ROAD, DEWAS"
  },
  {
    "s": { "no": "241" },
    "brand": "Sonalika",
    "local dealer": "NARMADA JINNING AGENCY",
    "phone number": "9074255590",
    "state": "Madhya Pradesh",
    "city": "Dewas",
    "pincode": "N/A",
    "address": "NEMAWAR ROAD ,KHATEGAON"
  },
  {
    "s": { "no": "242" },
    "brand": "Sonalika",
    "local dealer": "SONBER AGRO INDUSTRIES",
    "phone number": "9424220052",
    "state": "Chhattisgarh",
    "city": "Dhamtari",
    "pincode": "N/A",
    "address": "SARDAR VALLABH BHAI PATEL WARD RAIPUR ROAD, INFRONT OF NIRMAL DHARAM KANTA,SAHU STEEL"
  },
  {
    "s": { "no": "243" },
    "brand": "Sonalika",
    "local dealer": "MAHAMAYA AGRO",
    "phone number": "9893634357",
    "state": "Chhattisgarh",
    "city": "Dhamtari",
    "pincode": "N/A",
    "address": "NEAR SHARDA FUELS RAIPUR ROAD"
  },
  {
    "s": { "no": "244" },
    "brand": "Sonalika",
    "local dealer": "SHIVAM TRACTORS",
    "phone number": "9334001094",
    "state": "Jharkhand",
    "city": "Dhanbad",
    "pincode": "N/A",
    "address": "SHIVAM COLONY MORE NEAR BHUIPHOR MANDIR, POST. KG ASHRAM, PS SARAIDHELA"
  },
  {
    "s": { "no": "245" },
    "brand": "Sonalika",
    "local dealer": "JAI KISAN TRACTORS",
    "phone number": "9893231531",
    "state": "Madhya Pradesh",
    "city": "Dhar",
    "pincode": "N/A",
    "address": "Baiganda Road , Near Hanuman Temple ,A.B ROAD ,DHAMNOD Baiganda Road , Near Hanuman Temple ,A.B ROAD ,DHAMNOD"
  },
  {
    "s": { "no": "246" },
    "brand": "Sonalika",
    "local dealer": "MANGLAM TRACTORS",
    "phone number": "9827235402",
    "state": "Madhya Pradesh",
    "city": "Dhar",
    "pincode": "N/A",
    "address": "44/6 TRIMURTI NAGAR ,INDORE-AHMEDABAD HIGHWAY ,DHAR 44/6 TRIMURTI NAGAR ,INDORE-AHMEDABAD HIGHWAY ,DHAR"
  },
  {
    "s": { "no": "247" },
    "brand": "Sonalika",
    "local dealer": "M/S NEW JAI KISAN TRACTORS",
    "phone number": "9516000225",
    "state": "Madhya Pradesh",
    "city": "Dhar",
    "pincode": "N/A",
    "address": "Khair Khodara Badwani Road, KUKSHI Distt. Dhar Khair Khodara Badwani Road, KUKSHI Distt. Dhar"
  },
  {
    "s": { "no": "248" },
    "brand": "Sonalika",
    "local dealer": "SHIVAM TRACTORS",
    "phone number": "9921679940",
    "state": "Maharashtra",
    "city": "Dhar",
    "pincode": "N/A",
    "address": "NAGAR PATHARDI ROAD,"
  },
  {
    "s": { "no": "249" },
    "brand": "Sonalika",
    "local dealer": "SHRI JODABASAVESHWAR MOTORS",
    "phone number": "9980780659",
    "state": "Karnataka",
    "city": "Dharwad",
    "pincode": "N/A",
    "address": "KAMLAPUR ROAD, NARAYANPUR, OPP. AMAR JYOTI HOSPITAL KAMLAPUR ROAD, NARAYANPUR, OPP. AMAR JYOTI HOSPITAL"
  },
  {
    "s": { "no": "250" },
    "brand": "Sonalika",
    "local dealer": "BANKE BIHARI MOTORS",
    "phone number": "9507954511",
    "state": "Rajasthan",
    "city": "Dhaulpur",
    "pincode": "N/A",
    "address": "N.H 3, NEAER MID-WAY"
  },
  {
    "s": { "no": "251" },
    "brand": "Sonalika",
    "local dealer": "Satyasai Tractors & Motors",
    "phone number": "9437067303",
    "state": "Orissa",
    "city": "Dhenkanal",
    "pincode": "N/A",
    "address": "NH-55, Korian By-Pass Chhak"
  },
  {
    "s": { "no": "252" },
    "brand": "Sonalika",
    "local dealer": "Shri Samarth Krupa Agro Agency",
    "phone number": "9823060137",
    "state": "Maharashtra",
    "city": "Dhule",
    "pincode": "N/A",
    "address": "Plot No. 58,Sr.No.31,Bombay Agra Road, Mohadi"
  },
  {
    "s": { "no": "253" },
    "brand": "Sonalika",
    "local dealer": "MAGIK FARMING",
    "phone number": "9850355444",
    "state": "Maharashtra",
    "city": "Dhule",
    "pincode": "N/A",
    "address": "SURAT NAGPUR HIGHWAY"
  },
  {
    "s": { "no": "254" },
    "brand": "Sonalika",
    "local dealer": "Jai Ambe Maa Motors",
    "phone number": "8308599007",
    "state": "Maharashtra",
    "city": "Dhule",
    "pincode": "N/A",
    "address": "A/P Shirpur FattaJai Ambe Maa Motors"
  },
  {
    "s": { "no": "255" },
    "brand": "Sonalika",
    "local dealer": "Sumangal Tractors",
    "phone number": "8806526800",
    "state": "Maharashtra",
    "city": "Dhule",
    "pincode": "N/A",
    "address": "Survey No 62/3/A2, Shivar Warwade, Dhule Bypass"
  },
  {
    "s": { "no": "256" },
    "brand": "Sonalika",
    "local dealer": "Shri Sai Tractors",
    "phone number": "9407834111",
    "state": "Madhya Pradesh",
    "city": "Dindori",
    "pincode": "N/A",
    "address": "NEAR COLLECTORATE OFFICE MAIN ROAD"
  },
  {
    "s": { "no": "257" },
    "brand": "Sonalika",
    "local dealer": "JAY BHAWANI TRACTORS",
    "phone number": "9426003291",
    "state": "Gujarat",
    "city": "Dohad",
    "pincode": "N/A",
    "address": "Garbada Road, By Pass Chowkdi"
  },
  {
    "s": { "no": "258" },
    "brand": "Sonalika",
    "local dealer": "Shree Sai Tractors",
    "phone number": "9879041144",
    "state": "Gujarat",
    "city": "Dohad",
    "pincode": "N/A",
    "address": "At Limbdi, Jhalod Dahod Bye Pass"
  },
  {
    "s": { "no": "259" },
    "brand": "Sonalika",
    "local dealer": "Kuber Enterprises",
    "phone number": "Jharkhand",
    "state": "Dumka",
    "city": "814101",
    "pincode": "N/A",
    "address": "GAUSHALA ROAD"
  },
  {
    "s": { "no": "260" },
    "brand": "Sonalika",
    "local dealer": "SRI MAHAVEER STORE",
    "phone number": "9414104928",
    "state": "Rajasthan",
    "city": "Dungarpur",
    "pincode": "N/A",
    "address": "Old Bus Stand"
  },
  {
    "s": { "no": "261" },
    "brand": "Sonalika",
    "local dealer": "Kochar Tractors",
    "phone number": "9827827888",
    "state": "Chhattisgarh",
    "city": "Durg",
    "pincode": "N/A",
    "address": "GANDAI ROADINFORNT OF DHIMAR DHARAMSHALA"
  },
  {
    "s": { "no": "262" },
    "brand": "Sonalika",
    "local dealer": "BANSHIDHAR TRACTORS",
    "phone number": "9998015649",
    "state": "Gujarat",
    "city": "Dwarka",
    "pincode": "N/A",
    "address": "G.I.D.C. Salaya Road,"
  },
  {
    "s": { "no": "263" },
    "brand": "Sonalika",
    "local dealer": "R B S Enterprises",
    "phone number": "9631818332",
    "state": "Bihar",
    "city": "East Champaran",
    "pincode": "N/A",
    "address": "NH-28 Main Road"
  },
  {
    "s": { "no": "264" },
    "brand": "Sonalika",
    "local dealer": "Sri Valluri Kameshwar Rao",
    "phone number": "9912633444",
    "state": "Andhra Pradesh",
    "city": "East Godavari",
    "pincode": "N/A",
    "address": "D.No. 8-35, Chandra Street, Draksharama Ramachandrapuram Manda"
  },
  {
    "s": { "no": "265" },
    "brand": "Sonalika",
    "local dealer": "ABHINAV AUTO",
    "phone number": "9334038124",
    "state": "Jharkhand",
    "city": "East Singhbhum",
    "pincode": "N/A",
    "address": "ALISHAN TOWER, JAWAJAR MAGAR RPAD NO. 13 MANGO JAMSHEDPUR"
  },
  {
    "s": { "no": "266" },
    "brand": "Sonalika",
    "local dealer": "Adhya Automotive",
    "phone number": "9837864200",
    "state": "Uttar Pradesh",
    "city": "Etah",
    "pincode": "N/A",
    "address": "OPP HINDUSTAN LEVER, KASGANJ ROAD"
  },
  {
    "s": { "no": "267" },
    "brand": "Sonalika",
    "local dealer": "Deepak Automobiles",
    "phone number": "9837703204",
    "state": "Uttar Pradesh",
    "city": "Etah",
    "pincode": "N/A",
    "address": "NIDHOOLI BUS STANDTEHSIL JALESAR"
  },
  {
    "s": { "no": "268" },
    "brand": "Sonalika",
    "local dealer": "Shanti Agro Equipments",
    "phone number": "7838384512",
    "state": "Uttar Pradesh",
    "city": "Etah",
    "pincode": "N/A",
    "address": "KAYAMGANJ ROAD, OPP GRAMIN BANK"
  },
  {
    "s": { "no": "269" },
    "brand": "Sonalika",
    "local dealer": "Shri Giriraj Tractors",
    "phone number": "9720910904",
    "state": "Uttar Pradesh",
    "city": "Etawah",
    "pincode": "N/A",
    "address": "353, ASHOK NAGARFARUKHABAD ROAD"
  },
  {
    "s": { "no": "270" },
    "brand": "Sonalika",
    "local dealer": "Zamidara Tractors",
    "phone number": "9463108383",
    "state": "Punjab",
    "city": "Faridkot",
    "pincode": "N/A",
    "address": "Near Shahi haveli , Farid enclave , Kotkapura Road"
  },
  {
    "s": { "no": "271" },
    "brand": "Sonalika",
    "local dealer": "R.C. Krishi Kendra",
    "phone number": "9415146571",
    "state": "Uttar Pradesh",
    "city": "Farrukhabad",
    "pincode": "N/A",
    "address": "BYE PASS KAYAMGANJ"
  },
  {
    "s": { "no": "272" },
    "brand": "Sonalika",
    "local dealer": "Rajput Tractors",
    "phone number": "9451677703",
    "state": "Uttar Pradesh",
    "city": "Farrukhabad",
    "pincode": "N/A",
    "address": "BEWAR ROAD, MURHAS KANHAIYA, POST PIPERGAON"
  },
  {
    "s": { "no": "273" },
    "brand": "Sonalika",
    "local dealer": "SHREE RAM TRACTORS",
    "phone number": "9416269775",
    "state": "Haryana",
    "city": "Fatehabad",
    "pincode": "N/A",
    "address": "Near Bhunna More, G.T Road, Near Bhunna More, G.T Road,"
  },
  {
    "s": { "no": "274" },
    "brand": "Sonalika",
    "local dealer": "Charan Automobiles",
    "phone number": "9415033100",
    "state": "Uttar Pradesh",
    "city": "Fatehpur",
    "pincode": "N/A",
    "address": "33 KISAN BHAWAN, JAWALAGANJ,"
  },
  {
    "s": { "no": "275" },
    "brand": "Sonalika",
    "local dealer": "Nirankari Tractors",
    "phone number": "9838015010",
    "state": "Uttar Pradesh",
    "city": "Fatehpur",
    "pincode": "N/A",
    "address": "G.T ROAD,,, CHAUDAGARA,"
  },
  {
    "s": { "no": "276" },
    "brand": "Sonalika",
    "local dealer": "GURU NANAK TRACTORS",
    "phone number": "9872352360",
    "state": "Punjab",
    "city": "Fazilka",
    "pincode": "N/A",
    "address": "MALOUT ROAD NEAR TRUCK UNION"
  },
  {
    "s": { "no": "277" },
    "brand": "Sonalika",
    "local dealer": "Bhartiya Tractors",
    "phone number": "9412301655",
    "state": "Uttar Pradesh",
    "city": "Firozabad",
    "pincode": "N/A",
    "address": "STATION ROADMAINPURI CHOURAHASHIKOHABAD,"
  },
  {
    "s": { "no": "278" },
    "brand": "Sonalika",
    "local dealer": "S.S Tractors",
    "phone number": "9412416120",
    "state": "Uttar Pradesh",
    "city": "Firozabad",
    "pincode": "N/A",
    "address": "NEAR ANAZ MANDIETAH ROAD"
  },
  {
    "s": { "no": "279" },
    "brand": "Sonalika",
    "local dealer": "Punjab Tractors",
    "phone number": "9872814082",
    "state": "Punjab",
    "city": "Firozpur",
    "pincode": "N/A",
    "address": "OPPOSITE KANCHAN TARA HOTELABOHAR ROAD,,"
  },
  {
    "s": { "no": "280" },
    "brand": "Sonalika",
    "local dealer": "MAJHA MALWA TRACTORS",
    "phone number": "9781100060",
    "state": "Punjab",
    "city": "Firozpur",
    "pincode": "N/A",
    "address": "TALWANDI ROAD"
  },
  {
    "s": { "no": "281" },
    "brand": "Sonalika",
    "local dealer": "Shri Venkateshwara Motors",
    "phone number": "9403614585",
    "state": "Maharashtra",
    "city": "Gadchiroli",
    "pincode": "N/A",
    "address": "Besides S B College, Aheri Allapalli Road"
  },
  {
    "s": { "no": "282" },
    "brand": "Sonalika",
    "local dealer": "A. K Motors",
    "phone number": "9437262337",
    "state": "Orissa",
    "city": "Gajapati",
    "pincode": "N/A",
    "address": "Kashinagar Road, Near Power House, Paralakhemundi,"
  },
  {
    "s": { "no": "283" },
    "brand": "Sonalika",
    "local dealer": "Shree Ram Enterprise",
    "phone number": "9825787279",
    "state": "Gujarat",
    "city": "Gandhinagar",
    "pincode": "N/A",
    "address": "Shop No -1,2 Rudhrax Complex , Bayad Road , Palaiya"
  },
  {
    "s": { "no": "284" },
    "brand": "Sonalika",
    "local dealer": "Satyam Tractors",
    "phone number": "9825005422",
    "state": "Gujarat",
    "city": "Gandhinagar",
    "pincode": "N/A",
    "address": "20 G, J.P. Commercial Centre, Mahendra Mill Road"
  },
  {
    "s": { "no": "285" },
    "brand": "Sonalika",
    "local dealer": "Saroj Tractors",
    "phone number": "9437447520",
    "state": "Orissa",
    "city": "Ganjam",
    "pincode": "N/A",
    "address": "By-Pass Road, Bhanjanagar By-Pass Road, Bhanjanagar"
  },
  {
    "s": { "no": "286" },
    "brand": "Sonalika",
    "local dealer": "MAA KALI AUTOMOBILES",
    "phone number": "9431339064",
    "state": "Jharkhand",
    "city": "Garhwa",
    "pincode": "N/A",
    "address": "OPP: DFO RESIDENCY, KUTCHERY ROAD ,GARHWA OPP: DFO RESIDENCY, KUTCHERY ROAD ,GARHWA"
  },
  {
    "s": { "no": "287" },
    "brand": "Sonalika",
    "local dealer": "Neelkamal Agrotech",
    "phone number": "9893397575",
    "state": "Chhattisgarh",
    "city": "Gariaband",
    "pincode": "N/A",
    "address": "Near Tehsil Office, Fingeshwar Road"
  },
  {
    "s": { "no": "288" },
    "brand": "Sonalika",
    "local dealer": "Baba Automobiles",
    "phone number": "9899270502",
    "state": "Uttar Pradesh",
    "city": "Gautam Buddha Nagar",
    "pincode": "N/A",
    "address": "G.T ROADBRAHAMPURI,"
  },
  {
    "s": { "no": "289" },
    "brand": "Sonalika",
    "local dealer": "Bajrang Tractors",
    "phone number": "9719877111",
    "state": "Uttar Pradesh",
    "city": "Gautam Buddha Nagar",
    "pincode": "N/A",
    "address": "NEAR SWASTIK HOSPITAL, TAPPAL ROAD, JEWAR, DISTT. G.B. NAGAR"
  },
  {
    "s": { "no": "290" },
    "brand": "Sonalika",
    "local dealer": "MAHA LAXMI TRADING",
    "phone number": "7766076794",
    "state": "Bihar",
    "city": "Gaya",
    "pincode": "N/A",
    "address": "VILL + POST KANDI, PS GAYA"
  },
  {
    "s": { "no": "291" },
    "brand": "Sonalika",
    "local dealer": "Akshita Traders",
    "phone number": "9939919872",
    "state": "Bihar",
    "city": "Gaya",
    "pincode": "N/A",
    "address": "NH 83, Gaya Bodhgaya Road,"
  },
  {
    "s": { "no": "292" },
    "brand": "Sonalika",
    "local dealer": "Shiv Shakti Automobiles",
    "phone number": "9910112376",
    "state": "Uttar Pradesh",
    "city": "Ghaziabad",
    "pincode": "N/A",
    "address": "389/53, BABA NAGAR, MEERUT ROAD,"
  },
  {
    "s": { "no": "293" },
    "brand": "Sonalika",
    "local dealer": "Shiv Shakti Automobiles",
    "phone number": "7678415730",
    "state": "Uttar Pradesh",
    "city": "Ghaziabad",
    "pincode": "N/A",
    "address": "389/53, Baba Nagar, Meerut Road"
  },
  {
    "s": { "no": "294" },
    "brand": "Sonalika",
    "local dealer": "New Subh Sagun Enterprises",
    "phone number": "9451070253",
    "state": "Uttar Pradesh",
    "city": "Ghazipur",
    "pincode": "N/A",
    "address": "SADAT ROAD, OPPOSITE IRRIGATIN DEPARTMENT OFFICE"
  },
  {
    "s": { "no": "295" },
    "brand": "Sonalika",
    "local dealer": "Neelkanth Automobiles",
    "phone number": "7398270764",
    "state": "Uttar Pradesh",
    "city": "Ghazipur",
    "pincode": "N/A",
    "address": "Khampur, Sadiyabaad Road"
  },
  {
    "s": { "no": "296" },
    "brand": "Sonalika",
    "local dealer": "J.K Automobiles",
    "phone number": "9415861082",
    "state": "Uttar Pradesh",
    "city": "Ghazipur",
    "pincode": "N/A",
    "address": "YUSUFPUR, , NEAR MAIN POST OFFICE,"
  },
  {
    "s": { "no": "297" },
    "brand": "Sonalika",
    "local dealer": "MAA SHARDA AGENCY",
    "phone number": "9801313975",
    "state": "Jharkhand",
    "city": "Giridih",
    "pincode": "N/A",
    "address": "AT PO KHARAGDIGHA PS JAMUA AT PO KHARAGDIGHA PS JAMUA"
  },
  {
    "s": { "no": "298" },
    "brand": "Sonalika",
    "local dealer": "HARE KRISHNA ENGINEERING WORKS",
    "phone number": "9437149642",
    "state": "Jharkhand",
    "city": "Godda",
    "pincode": "N/A",
    "address": "PATHARA ROAD,SARKANDA"
  },
  {
    "s": { "no": "299" },
    "brand": "Sonalika",
    "local dealer": "HERON TRACTORS",
    "phone number": "9854015162",
    "state": "Assam",
    "city": "Golaghat",
    "pincode": "N/A",
    "address": "CHANDMARI WARD NO 10 PO GOLAGHAT CHANDMARI WARD NO 10 PO GOLAGHAT"
  },
  {
    "s": { "no": "300" },
    "brand": "Sonalika",
    "local dealer": "S.K Automovers",
    "phone number": "9415249101",
    "state": "Uttar Pradesh",
    "city": "Gonda",
    "pincode": "N/A",
    "address": "154, MALVIYA NAGAR,"
  },
  {
    "s": { "no": "301" },
    "brand": "Sonalika",
    "local dealer": "Jai Shakti Tractors",
    "phone number": "9919934545",
    "state": "Uttar Pradesh",
    "city": "Gonda",
    "pincode": "N/A",
    "address": "VILLAGE ATTA, TEHSIL COLONEGANJ, BLOCK PARASPUR,"
  },
  {
    "s": { "no": "302" },
    "brand": "Sonalika",
    "local dealer": "Shri Ram Tractors",
    "phone number": "8960158982",
    "state": "Uttar Pradesh",
    "city": "Gonda",
    "pincode": "N/A",
    "address": "Mohalla Shastri Nagar, Near Railway Station, ITI Road"
  },
  {
    "s": { "no": "303" },
    "brand": "Sonalika",
    "local dealer": "BHATIA TRACTORS",
    "phone number": "9326810562",
    "state": "Maharashtra",
    "city": "Gondiya",
    "pincode": "N/A",
    "address": "IN FRONT OF ARYA CARS (MARUTI) GOERGAON ROAD"
  },
  {
    "s": { "no": "304" },
    "brand": "Sonalika",
    "local dealer": "SHOBHA MOTORS",
    "phone number": "8228000014",
    "state": "Bihar",
    "city": "Gopalganj",
    "pincode": "N/A",
    "address": "NEAR BHARKUINYA MORE, N.H 28"
  },
  {
    "s": { "no": "305" },
    "brand": "Sonalika",
    "local dealer": "Kishan Farm Machinery",
    "phone number": "8756802012",
    "state": "Uttar Pradesh",
    "city": "Gorakhpur",
    "pincode": "N/A",
    "address": "KHAYANEHI CHANAHA, FALIMA ROAD, BANS MANDI,"
  },
  {
    "s": { "no": "306" },
    "brand": "Sonalika",
    "local dealer": "Ganga Tractors",
    "phone number": "9451217267",
    "state": "Uttar Pradesh",
    "city": "Gorakhpur",
    "pincode": "N/A",
    "address": "GORAKHPUR ROAD,"
  },
  {
    "s": { "no": "307" },
    "brand": "Sonalika",
    "local dealer": "Sri Ranga Motors",
    "phone number": "9986888103",
    "state": "Karnataka",
    "city": "Gulbarga",
    "pincode": "N/A",
    "address": "Near TV Station, Humnabad Road"
  },
  {
    "s": { "no": "308" },
    "brand": "Sonalika",
    "local dealer": "Shri Shiva Sai Motors",
    "phone number": "9620334071",
    "state": "Karnataka",
    "city": "Gulbarga",
    "pincode": "N/A",
    "address": "Dakare Complex Near By Basaveshwara Kallyanmanttappa, Gulbarga Main Road"
  },
  {
    "s": { "no": "309" },
    "brand": "Sonalika",
    "local dealer": "KUMAR ENTERPRISES",
    "phone number": "9431116096",
    "state": "Jharkhand",
    "city": "Gumla",
    "pincode": "N/A",
    "address": "LOHARDAGA ROAD, GUMLA, NEAR MISSION CHOWK LOHARDAGA ROAD, GUMLA, NEAR MISSION CHOWK"
  },
  {
    "s": { "no": "310" },
    "brand": "Sonalika",
    "local dealer": "Anand Enterprises",
    "phone number": "9755364378",
    "state": "Madhya Pradesh",
    "city": "Guna",
    "pincode": "N/A",
    "address": "Near Hotel The Sara, A,B Road"
  },
  {
    "s": { "no": "311" },
    "brand": "Sonalika",
    "local dealer": "VIJAYA INDUSTRIES,TRACTOR DIVISION",
    "phone number": "9989542777",
    "state": "Andhra Pradesh",
    "city": "Guntur",
    "pincode": "N/A",
    "address": "SHED NO-8 , BY PASSROAD, Indira Auto Nagar,"
  },
  {
    "s": { "no": "312" },
    "brand": "Sonalika",
    "local dealer": "SRI SRINIVASA MOTORS",
    "phone number": "9573742233",
    "state": "Andhra Pradesh",
    "city": "Guntur",
    "pincode": "N/A",
    "address": "# 6-2-109/1, Guntur Road"
  },
  {
    "s": { "no": "313" },
    "brand": "Sonalika",
    "local dealer": "SRI SIRI SONALIKA TRACTORS",
    "phone number": "7729991108",
    "state": "Andhra Pradesh",
    "city": "Guntur",
    "pincode": "N/A",
    "address": "Plot No:221A&B 9th Corner,Auto Nagar"
  },
  {
    "s": { "no": "314" },
    "brand": "Sonalika",
    "local dealer": "SRI LAKSHMI HANUMAN INTERNATIONAL",
    "phone number": "9502921430",
    "state": "Andhra Pradesh",
    "city": "Guntur",
    "pincode": "N/A",
    "address": "Enugupalem Road"
  },
  {
    "s": { "no": "315" },
    "brand": "Sonalika",
    "local dealer": "Soma Sai Tractors",
    "phone number": "9248199999",
    "state": "Andhra Pradesh",
    "city": "Guntur",
    "pincode": "N/A",
    "address": "GUNTUR ROAD, DACHEPALLI"
  },
  {
    "s": { "no": "316" },
    "brand": "Sonalika",
    "local dealer": "R.K Tractors",
    "phone number": "8196915600",
    "state": "Punjab",
    "city": "Gurdaspur",
    "pincode": "N/A",
    "address": "Aliwal Bye Pass, Near Railway Crossing, Faizpur"
  },
  {
    "s": { "no": "317" },
    "brand": "Sonalika",
    "local dealer": "Guru Ram Das Tractors",
    "phone number": "9876918549",
    "state": "Punjab",
    "city": "Gurdaspur",
    "pincode": "N/A",
    "address": "Kahnuwan Road"
  },
  {
    "s": { "no": "318" },
    "brand": "Sonalika",
    "local dealer": "Shree Balaji Tractors",
    "phone number": "Haryana",
    "state": "Gurgaon",
    "city": "122001",
    "pincode": "N/A",
    "address": "Hari Nagar Near Indian Oil Petrol Pumb NH-8"
  }
]
